Dealer Name,website,street,city,state,zip,phone
Money Ford  Inc.,http://www.moneyford.com,408 Dothan Road,Abbeville,AL,36310,(334) 585-2201
Gilland Ford,http://www.gillandford.com,3118 South US Highway 231,Ozark,AL,36360,(334) 443-1000
Bondy's Ford Lincoln,http://www.bondysford.net,3615 Ross Clark Circle,Dothan,AL,36303,(334) 792-5171
Ernest McCarty Ford  Inc.,http://www.mccartyford.com,1471 First Street North,Alabaster,AL,35007,(205) 663-3831
Long-Lewis Ford Lincoln,http://www.long-lewisford.com,2551 John Hawkins Parkway,Hoover,AL,35244,(205) 989-3673
Town & Country Ford,http://www.townandcountryfordbessemer.com,5041 Ford Parkway,Bessemer,AL,35022,(205) 491-0000
Adamson Ford,http://www.fordofbirmingham.com,1922 2nd Avenue South,Birmingham,AL,35233,(205) 271-4700
Iron City Ford,http://www.ironcityford.net,9924 Parkway East,Birmingham,AL,35215,(205) 854-2222
Baugh Ford  LLC,http://www.baughford.net,1670 7th Street North,Clanton,AL,35045,(205) 280-4100
Gilbert & Baugh Ford  Inc.,http://www.gilbertbaughford.com,10195 Highway 431 North,Albertville,AL,35950,(256) 891-3000
Alexander Ford  Inc.,http://www.alexanderfordboaz.com,Hwy 431 S PO 398,Boaz,AL,35957,(256) 593-4204
Jerry Damson Ford,http://www.jerrydamsonford.com,810 North Brindlee Mountain Parkway,Arab,AL,35016,(256) 586-6041
Ronnie Watkins Ford  Inc.,http://www.ronniewatkinsford.net,101 George Wallace Drive,Gadsden,AL,35903,(256) 543-9400
Valley Ford,http://www.valleyford.org,28339 Highway 75 South,Oneonta,AL,35121,(205) 625-3122
AutoNation Ford Fort Payne,http://www.autonationfordoffortpayne.com,1916 Glenn Boulevard SW,Fort Payne,AL,35968,(256) 845-1101
Harbin Motor Company  Inc.,http://www.harbinfordscottsboro.net,564 Micah Way,Scottsboro,AL,35769,(256) 574-1819
Tallapoosa Ford,http://www.tallapoosaford.com,1551 Highway 280,Alexander City,AL,35010,(256) 234-3432
Tallassee Ford,http://www.tallasseeford.com,1618 Gilmer Ave.,Tallassee,AL,36078,(334) 283-6815
Andalusia Ford  L.L.C.,http://www.andalusiaford.net,301 MLK  Jr Expressway,Andalusia,AL,36420,(334) 222-1103
Jim Cook Ford,http://www.jimcookfordinc.com,620 North Troy Road,Elba,AL,36323,(334) 897-3130
Sunny King Ford,http://www.sunnykingford.net,1507 S Quintard Ave,Anniston,AL,36201,(256) 831-5300
Buster Miles Ford,http://www.bustermiles-ford.com,1880 Almon Street just off of I-20 exit 199,Heflin,AL,36264,(256) 403-0701
Tony Serra Ford  Inc.,http://www.tonyserrafordtalladega.com,723 East Battle Street,Talladega,AL,35160,(256) 362-6900
Town & Country Ford Pell City  LLC,http://www.pellcityford.com,1101 Martin Street North,Pell City,AL,35125,(205) 338-9463
Eckenrod Ford Lincoln of Cullman  Inc.,http://www.eckenrodford.com,5255 Alabama Highway 157,Cullman,AL,35058,(800) 944-1389
Eddie Preuitt Ford  Inc.,http://www.eddiepreuitt.com,710 Highway 31 North,Hartselle,AL,35640,(256) 773-2578
McClary Ford,http://www.mcclaryforddirect.net,1104 Highway 72 East,Athens,AL,35611,(256) 232-4242
Lynn Layton Ford  Inc.,http://www.lynnlaytonford.com,3300 6th Avenue SE,Decatur,AL,35603,(256) 350-2120
Woody Anderson Ford Huntsville,http://www.woodyandersonsales.com,2500 Jordan Lane,Huntsville,AL,35816,(800) 457-1384
John Carpenter Ford  Inc.,http://www.johncarpenterford.net,14591 Court Street,Moulton,AL,35650,(256) 974-1186
Johnson Ford  Inc.,http://www.jjohnsonford.com,1828 South Main Street,Atmore,AL,36502,(251) 368-2135
Chuck Stevens Automotive  Inc.,http://www.chuckstevensford.net,1304 Highway 31 South,Bay Minette,AL,36507,(800) 476-9754
Jim Peach Motors Inc,http://www.jimpeachmotors.net,518 South Blvd.,Brewton,AL,36426,(251) 867-6212
AutoNation Ford-Lincoln Auburn,http://www.autonationfordofauburn.com,2305 South College,Auburn,AL,36832,(334) 887-8571
Opelika Ford,http://www.opelika-ford.com,801 Columbus Parkway,Opelika,AL,36801,(334) 749-8113
King Ford Lincoln,http://www.kingfordvalley.com,615 Fob James Drive,Valley,AL,36854,(334) 756-7111
Sandy Sansing Ford Lincoln  LLC,http://www.sandysansingford.net,27180 Highway 98,Daphne,AL,36526,(251) 626-7777
AutoNation Ford Mobile,http://www.autonationford-mobile.com,901 East I 65 Service Road South,Mobile,AL,36606,(251) 478-3351
Mullinax Ford Lincoln,http://www.mullinaxfordal.com,7311 Airport Blvd.,Mobile,AL,36608,(251) 344-4000
Pike County Ford,http://www.pikecountyford.com,121 Highway 231,Troy,AL,36081,(334) 566-7350
Ed Sherling Ford Inc,http://www.edsherlingfordinc.com,805 Glover Avenue,Enterprise,AL,36330,(334) 347-2245
Hearn Ford Inc.,http://www.hearnfordinc.com,Highway 17 North,Chatom,AL,36518,(251) 847-2229
Long-Lewis of the River Region  Inc.,http://www.longlewisriverregionford.com,2091 Highway 14 East,Prattville,AL,36066,(334) 365-2272
Moyer Ford Sales Inc,http://www.moyerfordsales.net,10111 State Highway 59 South,Foley,AL,36535,(251) 943-1661
Tuscaloosa Ford  LLC,http://www.tuscaloosafordal.net,5801 McFarland Boulevard East,Tuscaloosa,AL,35405,(205) 752-0401
Ward Motor Co,http://www.wardmotorcompany.com,1301 W Maple Ave,Geneva,AL,36340,(334) 684-3646
Mike Freeman Ford,http://www.mikefreemanford.net,2024 Temple Avenue North,Fayette,AL,35555,(205) 932-5225
West Alabama Ford  LLC,http://www.westalabamaford.net,5859 Highway 278,Sulligent,AL,35586,(205) 698-9146
Long-Lewis Ford Lincoln,http://www.longlewisford.com,2800 Woodward Avenue,Muscle Shoals,AL,35661,(256) 386-7800
Joe Bullard Ford Lincoln,http://www.joebullardford.com,19684 Highway 43 North,Grove Hill,AL,36451,(251) 275-4464
Sales Ford Inc,http://www.salesford.com,1376 South Alabama Avenue,Monroeville,AL,36460,(251) 575-4891
Automotive Group of Jasper  LLC,http://www.fordofjasper.com,4100 Highway 78 East,Jasper,AL,35501,(205) 384-4400
Stivers Ford Lincoln,http://www.stiversfordofmontgomery.com,4000 Eastern Blvd.,Montgomery,AL,36116,(334) 613-5000
Collier Ford Inc,http://www.collierfordinc.com,5156 US Highway 231,Wetumpka,AL,36092,(334) 567-8444
Moore - Stewart Ford,http://www.moore-stewartford.com,1406 East Highland Avenue,Selma,AL,36703,(334) 875-2330
