Dealer Name,website,street,city,state,zip,phone
Gildner Ford-Lincoln  Inc.,http://www.gildnerfordinc.com,Highway 67 North,Arkadelphia,AR,71923,(870) 246-4508
Smart Ford,http://www.smartfordmalvern.net,1103 Martin Luther King Blvd.,Malvern,AR,72104,(501) 332-5414
Riser Ford Lincoln,http://www.riserford.com,4201 Central Avenue,Hot Springs,AR,71913,(888) 547-3820
Mark Martin Ford,http://www.markmartinfordar.com,1601 Batesville Blvd.,Batesville,AR,72501,(870) 793-4461
Harris Ford,http://www.harris-ford.com,3710 South Van Dyke Road,Newport,AR,72112,(870) 523-5559
Freedom Ford,http://www.freedomford.org,901 East Main Street,Melbourne,AR,72556,(870) 368-4219
McClung Ford Inc,http://www.mcclungford.com,707 East Main Street,Mountain View,AR,72560,(870) 269-3866
Jayson Jones Ford  LLC,http://www.jaysonjonesford.net,1810 Highway 25B North,Heber Springs,AR,72543,(866) 738-7516
Landers Ford,http://www.landersford.net,19501 Interstate 30,Benton,AR,72015,(501) 315-4700
Crain Ford of Little Rock,http://www.crainfordoflittlerock.net,4601 Colonel Glenn Plaza Drive,Little Rock,AR,72210,(501) 542-6041
Mark McLarty Ford Lincoln,http://www.markmclartyford.net,4400 Landers Road,North Little Rock,AR,72117,(501) 945-1200
McLarty Daniel Ford,http://www.landersmclartyfordonline.com,2609 South Walton Boulevard,Bentonville,AR,72712,(479) 273-9022
Springdale Ford  Inc.,http://www.springdale-ford.com,2259 North Thompson,Springdale,AR,72764,(866) 767-5595
Lewis Ford Sales Inc,http://www.lewiscars.com,3373 North College,Fayetteville,AR,72703,(479) 442-5301
Superior Ford Inc,http://www.superfordnwa.com,491 Highway 412 East,Siloam Springs,AR,72761,(479) 524-9581
Clay Maxey Ford of Berryville,http://www.claymaxeyfordberryville.com,706 West Trimble,Berryville,AR,72616,(870) 423-3303
Clay Maxey Ford,http://www.claymaxeyfordharrison.com,311 Highway 62-65 South Bypass,Harrison,AR,72601,(870) 743-3200
Cavenaugh Ford Lincoln  LLC,http://www.cavenaughford.net,2000 East Highland Dr.,Jonesboro,AR,72401,(870) 972-8000
Cannon Ford of Blytheville,http://www.cannonfordblytheville.com,305 North Service Road,Blytheville,AR,72315,(870) 763-4453
Tyler Ford,http://www.randaltylerford.com,1837 State Highway 10 West,Booneville,AR,72927,(479) 675-2313
Paris Ford Inc,http://www.paris-ford.com,514 West Walnut,Paris,AR,72855,(800) 467-3325
Whitson-Morgan at Ozark,http://www.whitsonmorganozark.net,2001 North 18th,Ozark,AR,72949,(479) 667-2162
Randall Ford,http://www.randallford.net,5500 Rogers Avenue,Fort Smith,AR,72903,(479) 452-1311
Excel Ford of Cabot,http://www.excelfordofcabot.com,2040 West Main Street,Cabot,AR,72023,(501) 843-3536
Crain Ford Jacksonville,http://crainfordjacksonville.dealerconnection.com,1800 School Drive,Jacksonville,AR,72076,(501) 542-6046
Smith Ford  Inc.,http://www.smithford.net,908 East Oak,Conway,AR,72032,(501) 329-9881
W & W Ford Sales Inc,http://www.wwford.com,2000 East Race,Searcy,AR,72143,(501) 268-2486
Jim Golden Ford-Lincoln  LLC,http://www.jimgoldenford.net,790 California,Camden,AR,71701,(870) 836-2100
Smackover Motors,http://www.smackovermotors.com,4355 Smackover Highway,Smackover,AR,71762,(870) 725-3961
Teague Ford Lincoln,http://www.teagueford.net,1730 West Hillsboro,El Dorado,AR,71730,(870) 864-9400
Stephens Ford Inc,http://www.stephensford.com,1407 North Moro Street,Fordyce,AR,71742,(870) 352-3181
Whitson - Morgan Motor Company Inc,http://www.whitsonmorganford.com,103 South I-40,Clarksville,AR,72830,(800) 467-3018
Cogswell Mtrs Inc,http://www.cogswellmotors.net,1900 East Main,Russellville,AR,72801,(479) 968-2665
Magie Ford Lincoln Co.,http://www.magieford.com,948 Highway 287,Morrilton,AR,72110,(501) 354-4541
Red Taylor Ford Inc.,http://www.redtaylorford.com,401 West Second Street,Corning,AR,72422,(866) 639-1367
Glen Sain Ford  Inc.,http://www.glensainford.net,1301 Highway 49 North,Paragould,AR,72450,(870) 236-8546
De Queen Ford  Inc.,http://www.dequeenford.net,863 E Collin Raye Drive,De Queen,AR,71832,(870) 642-3604
Ryburn Motor Company Inc,http://www.ryburnford.com,156 Highway 425 South,Monticello,AR,71655,(870) 367-5353
Ross Ford,http://www.rossfordwynne.com,1903 N. Falls Blvd.,Wynne,AR,72396,(870) 238-7770
Hope Auto Company,http://www.hopeauto.com,1400 North Hervey,Hope,AR,71802,(870) 777-2371
Central Ford,http://www.centralfordtrumann.com,325 Highway 463 North,Trumann,AR,72472,(870) 483-6451
Eugene Vaughn Ford Sales  Inc.,http://www.vaughnford.com,106 Hwy 63 West,Marked Tree,AR,72365,(870) 358-2822
Ford of West Memphis,http://www.westmemphisford.com,2400 North Service Rd East,West Memphis,AR,72301,(870) 735-9800
Mena Ford  Inc.,http://www.menaford.com,1103 Highway 71 North,Mena,AR,71953,(479) 394-2214
Ultimate Ford  Inc.,http://www.ultimatefordinc.com,2448 Highway 62 West,Mountain Home,AR,72653,(870) 425-2181
Trotter Ford Lincoln,http://www.trotterfordpinebluff.com,3801 Bobo Road,Pine Bluff,AR,71603,(800) 467-3673
Petrus Auto Sales,http://www.petrusauto.com,2350 Highway 63 North,Stuttgart,AR,72160,(870) 673-4602
