Dealer Name,website,street,city,state,zip,phone
Town & Country Car and Truck Center  Inc.,http://www.towncountryfordalamosa.com,30 Craft,Alamosa,CO,81101,(719) 587-1800
Mike Naughton Ford Inc.,http://www.mikenaughtonford.com,150 South Havana,Aurora,CO,80012,(303) 343-1900
Barbee's Freeway Ford Inc.,http://www.freewayforddenver.com,4471 East Evans,Denver,CO,80222,(800) 891-1635
Rush Medium Duty Truck Center  Denver,http://www.rushfordtruck.com,6800 East 50th Avenue,Commerce City,CO,80022,(303) 297-3673
Groove Ford,http://www.grooveford.net,10039 E. Arapahoe Rd.,Centennial,CO,80112,(303) 643-9000
AutoNation Ford Littleton,http://www.autonationford-littleton.com,8252 S Broadway,Littleton,CO,80122,(303) 578-6106
O'Meara Ford Center Inc,http://www.omearafordcenter.net,400 W. 104th Ave.,Northglenn,CO,80234,(800) 644-6072
Phil Long Ford Of Denver,http://www.phil-long-denver.com,7887 West Tufts Avenue,Denver,CO,80123,(844) 250-4168
Larry H. Miller Ford Lakewood,http://www.larryhmillerford.net,11595 West 6th Avenue,Lakewood,CO,80215,(303) 232-2200
Brighton Ford,http://www.brightonfordco.com,190 W. Bromley Ln.,Brighton,CO,80601,(888) 311-1763
Sill - Terhar Motors Inc,http://www.sill-terharmotors.com,150 Alter Street,Broomfield,CO,80020,(303) 469-1801
Medved Ford  Inc.,http://www.medvedford.com,1404 S Wilcox St,Castle Rock,CO,80104,(303) 688-3137
Interstate Ford,http://www.interstatefordsales.net,800 Bryan Court,Dacono,CO,80514,(303) 833-2873
Longmont Ford,http://www.longmontford.net,235 Alpine Street,Longmont,CO,80501,(303) 776-2861
Loveland Ford Lincoln  Inc.,http://www.loveford.net,999 East  Eisenhower Blvd,Loveland,CO,80537,(970) 667-2220
Spradley/Barr Ford Lincoln of Greeley  Inc.,http://www.spradleybarrgreeley.net,4901 29th Street,Greeley,CO,80634,(970) 506-3600
Burlington Ford and Lincoln,http://www.burlington-limonford.com,1975 Rose Ave.,Burlington,CO,80807,(719) 346-5336
Faricy Ford Lincoln,http://www.faricyford.net,2501 Fremont Dr,Canon City,CO,81212,(719) 269-9911
Phil Long Ford at Chapel Hills,http://www.phillongfordatchapelhills.com,1565 Auto Mall Loop,Colorado Springs,CO,80920,(844) 234-1769
Phil Long Ford Lincoln - Motor City,http://www.phillongdeals.com,1114 Motor City Drive,Colorado Springs,CO,80905,(844) 237-2169
Keesee Motor Company,http://www.keeseemotorcompany.com,111 South Broadway,Cortez,CO,81321,(970) 565-8431
Cook Ford  Inc.,http://www.cookfordcraig.com,801 West Victory Way,Craig,CO,81625,(970) 824-9441
Hellman Motor Co,http://www.hellmanford.net,750 E. Highway 92,Delta,CO,81416,(970) 874-4444
Montrose Ford  Inc.,http://www.montroseford.net,100 Merchant Drive,Montrose,CO,81401,(970) 249-4576
Dove Creek Implement Co.,http://www.dovecreekford.com,207 West Hwy 491,Dove Creek,CO,81324,(970) 677-2274
Durango Ford Lincoln,http://www.durangoford.net,1200 Carbon Junction,Durango,CO,81301,(970) 385-4822
Spradley/Barr Ford  Inc.,http://www.spradleybarronline.com,4809 S. College Avenue,Ft Collins,CO,80525,(888) 992-9570
Glenwood Springs Ford,http://www.glenwoodspringsford.net,55 Storm King Road,Glenwood Springs,CO,81601,(800) 284-0085
Columbine Ford,http://www.columbinefordinc.com,2728 Railroad Avenue,Rifle,CO,81650,(970) 625-1680
Western Slope Auto Company,http://www.westernslopeauto.net,2264 Highway 6 & 50,Grand Junction,CO,81505,(970) 243-0843
Korf Continental,http://www.korfcontinentalford.com,622 West 1st,Julesburg,CO,80737,(970) 474-3391
Tri-County Ford Lincoln  Inc.,http://www.tricountyfordlincoln.com,7240 Hwy 50 West,Lamar,CO,81052,(719) 336-3268
Spradley Ford Lincoln   Inc.,http://www.dalespradleymotors.com,2828 Highway 50 West,Pueblo,CO,81008,(719) 545-0192
Town & Country of Salida,http://www.tcfordsalida.com,931 East Highway 50,Salida,CO,81201,(719) 539-6633
Summit Ford  Inc.,http://www.summitford.net,200 Buffalo Mountain Drive,Silverthorne,CO,80498,(970) 262-9230
Steamboat Motors  L.L.C.,http://www.steamboatmotors.net,2310 Lincoln Avenue,Steamboat Springs,CO,80487,(970) 879-8880
Korf Motors,http://www.korfmotorsford.com,520 East Chestnut Street,Sterling,CO,80751,(970) 522-2523
Cooke Motor Company,http://www.cookemotorcoford.com,426 East Main Street,Trinidad,CO,81082,(719) 846-2264
Bonanza Ford  Inc.,http://www.bonanzafordofwray.com,341 Adams Street,Wray,CO,80758,(970) 332-4838
