Dealer Name,website,street,city,state,zip,phone
Webb Ford  Inc.,http://www.webbford.net,9809 Indianapolis,Highland,IN,46322,(219) 924-3400
Art Hill Ford Lincoln,http://www.arthillford.com,901 West Lincoln Hwy,Merrillville,IN,46410,(219) 738-5300
Paul Heuring Motors Inc,http://www.paulheuring.com,720 N Hobart Rd,Hobart,IN,46342,(219) 942-3673
Smith Ford Of Lowell Inc,http://www.smithfordoflowell.com,1777 East Commercial Ave,Lowell,IN,46356,(866) 893-2915
Lake Shore Ford,http://www.lakeshoreford.net,244 Melton Road,Chesterton,IN,46304,(219) 787-8600
Currie Motors Ford of Valpo,http://www.fordofvalpo.com,2052 Morthland Drive,Valparaiso,IN,46385,(219) 464-3523
Expressway Ford,http://www.expresswayfordmountvernon.com,3800 East Highway 62,Mount Vernon,IN,47620,(812) 838-4366
Warrick Motor Co.,http://www.warrickmotorco.com,141 S. Stringtown Rd.,Covington,IN,47932,(765) 793-2233
Mace Ford,http://www.maceford.com,4501 South U.S. #41,Terre Haute,IN,47802,(812) 234-1502
Clinton Ford  Inc.,http://www.clintonfordinc.com,335 South Third Street,Clinton,IN,47842,(765) 832-3564
Fieldhouse Ford Sales  Inc.,http://www.fieldhouseford.com,1400 S Halleck St (us 231),Demotte,IN,46310,(219) 987-2500
Bob Bowen Ford  Inc.,http://www.bobbowenfordinc.com,2189 West U.S. 40,Brazil,IN,47834,(812) 442-2000
Ford Autoworld  Inc.,http://www.fordautoworld.net,2903 S. Scatterfield Rd.,Anderson,IN,46013,(765) 649-3673
McCrocklin Ford,http://www.mccrocklinford.net,683 North Eighth,Middletown,IN,47356,(765) 354-2261
Dellen Ford,http://www.dellenford.net,2001 E. McGalliard,Muncie,IN,47303,(765) 289-0431
Don Hinds Ford Inc,http://www.forddonhinds.com,12610 Ford Drive,Fishers,IN,46038,(317) 849-9000
Tipton Ford  Inc.,http://www.tiptonfordin.net,965 East Jefferson,Tipton,IN,46072,(765) 675-8777
Inskeep Ford,http://www.inskeepford.net,2651 West Main Street,Greenfield,IN,46140,(317) 462-1470
Tom Wood Ford,http://www.indyforddirect.com,3130 East 96th Street,Indianapolis,IN,46240,(317) 846-4241
Capitol City Ford Inc,http://www.capitolcityford.net,8623 East Washington Street,Indianapolis,IN,46219,(317) 898-0700
Fincannon Ford  Inc.,http://www.fincannon.com,1510 N Walnut Street (state Road 3),Hartford City,IN,47348,(765) 348-5100
Yoder Fuller Ford,http://www.yoderfullerford.com,830 E. Maumee St.,Angola,IN,46703,(260) 665-9526
Ben Davis Ford  Inc.,http://www.bendavisford.com,400 South Grandstaff Drive,Auburn,IN,46706,(260) 925-3100
Max Platt Ford-Lincoln  Inc.,http://www.maxplattford.com,1002 West North St.,Kendallville,IN,46755,(260) 347-3153
Yoder Ford  Inc.,http://www.billyoderford.com,201 E. Quincy,Garrett,IN,46738,(260) 357-5121
Bob Thomas Ford Lincoln,http://www.bobthomasfordnorth.net,310 W. Coliseum Blvd,Fort Wayne,IN,46805,(260) 482-4456
O'Daniel Ford Inc.,http://www.odanford.com,631 Lincoln Highway West,New Haven,IN,46774,(855) 395-4929
Bob Thomas Ford,http://www.bobthomasfordwest.net,5321 Illinois Road,Fort Wayne,IN,46804,(260) 436-3673
City Ford,http://www.fordofcolumbiacity.com,3100 East Business Highway 30,Columbia City,IN,46725,(260) 244-5171
Burnworth-Zollars Ford,http://www.burnworthzollarsford.com,309 U.S. 6 West,Ligonier,IN,46767,(260) 894-7176
Bedford Ford Lincoln Inc.,http://www.bedfordfordinc.net,10050 State Rd. 37 South,Bedford,IN,47421,(812) 279-8121
Bloomington Ford  Inc.,http://www.bloomingtonfordinc.com,2200 S Walnut St,Bloomington,IN,47401,(812) 331-2200
Eddie Gilstrap Motors  Inc.,http://www.eddiegilstrapmotorsinc.com,207 South Main Street,Salem,IN,47167,(812) 883-3481
Moser Motor Sales,http://www.mosermotorsales.net,218 W Main St,Berne,IN,46711,(260) 589-2171
Tom Kelley Ford,http://www.tomkelleyford.com,1341 S. 13th St.,Decatur,IN,46733,(260) 724-8526
Family Ford of Bluffton,http://www.familyfordofblufftonin.com,970 N. Main Street,Bluffton,IN,46714,(260) 824-2300
Crain Ford Inc,http://www.crain-ford.com,510 Huntington Avenue,Warren,IN,46792,(260) 375-3525
Ray Skillman Hoosier Ford  Inc.,http://www.rayskillmanhoosierford.net,333 Curry Dr.,Martinsville,IN,46151,(765) 342-3673
Southworth Ford  Inc.,http://www.southworthford.net,1430 North Baldwin Ave.,Marion,IN,46952,(765) 662-2561
D-Patrick Boonville Ford,http://www.boonvilleford.com,3100 Highway 62 West,Boonville,IN,47601,(812) 897-5838
Town & Country Ford,http://www.evansvilleford.com,7720 Lloyd Expressway,Evansville,IN,47715,(888) 257-2440
Champion Ford REO,http://www.championfordreo.net,3078 West State Road 66,Rockport,IN,47635,(812) 649-2990
D-Patrick Ford,http://www.dpatrickford.com,1100 E Walnut Street,Evansville,IN,47714,(812) 428-7800
Sternberg Ford,http://www.sternbergforddale.com,600 South Washington Street,Dale,IN,47523,(812) 937-4445
Ruxer Ford Lincoln  Inc.,http://www.ruxerford.com,123 Place Road - Hwy 231 S.,Jasper,IN,47546,(812) 482-1200
Bob Burkle Ford,http://www.bobburkleford.net,606 Main Street,Clay City,IN,47841,(812) 939-2168
Auto Park Ford of Bremen,http://www.autoparkford.com,1203 W. Plymouth St,Bremen,IN,46506,(574) 546-2727
Oliver Ford-Lincoln,http://www.oliverfordplymouth.com,1001 E. Jefferson St.,Plymouth,IN,46563,(574) 935-1001
Gurley-Leep Ford Lincoln,http://www.gurleyleepford.net,320 E Ireland Road,South Bend,IN,46614,(574) 291-6910
Jordan Ford,http://www.jordanfordauto.com,609 E. Jefferson,Mishawaka,IN,46545,(574) 259-1981
Eby Ford Sales  Inc.,http://www.ebyford.net,2714 Elkhart Road,Goshen,IN,46526,(574) 534-3673
Harold Zeigler Ford Lincoln,http://www.haroldzeigler.net,2525 Bypass Rd,Elkhart,IN,46514,(574) 294-1563
Rice Ford Lincoln Inc.,http://www.riceford.com,436 W County Road 250 North,Warsaw,IN,46582,(574) 267-8151
Rochester Ford-Lincoln  Inc.,http://www.rochesterfordinc.com,119 E Fourth Street,Rochester,IN,46975,(800) 634-4220
Best Ford  Inc.,http://www.bestfordknox.com,300 South Heaton Street,Knox,IN,46534,(888) 772-2181
Kerlin Motor Co Inc,http://www.kerlinmotors.com,State Road 15,Silver Lake,IN,46982,(260) 352-2162
Mike Raisor Ford,http://www.raisorford.com,2051 Sagamore Parkway,Lafayette,IN,47905,(765) 447-9444
Gutwein Motor Co Inc.,http://www.gutweinmotor.com,300 N Market Street,Monon,IN,47959,(888) 424-6613
Jim True Ford  Inc.,http://www.jimtrueford.com,11173 US Route 52 S.,Brookville,IN,47012,(765) 647-4151
Advantage Ford-Lincoln  Inc.,http://www.advantagefordsales.net,2350 Park Road,Connersville,IN,47331,(765) 825-0594
Haag Ford Sales  Inc.,http://www.haagfordsales.com,405 Eads Parkwy East,Lawrenceburg,IN,47025,(812) 537-3000
Struckman Ford  Inc.,http://www.struckmanford.net,811 North Buckeye Street,Osgood,IN,47037,(812) 689-4200
Don Meyer Ford  Inc.,http://www.donmeyerford.com,2010 N. Lincoln,Greensburg,IN,47240,(800) 939-6651
Wetzel Ford,http://www.wetzelford.net,4500 National Road East,Richmond,IN,47374,(765) 966-0505
Bill Estes Ford,http://www.billestesford.com,450 East Northfield Drive,Brownsburg,IN,46112,(317) 852-2231
Andy Mohr Ford Lincoln  Inc.,http://www.andymohrford.net,2713 East Main Street,Plainfield,IN,46168,(317) 839-6541
Pearson Ford,http://www.pearsonford.org,10650 North Michigan Road,Zionsville,IN,46077,(855) 385-8310
Gene Lewis Ford Inc,http://www.genelewisford.com,1515 Indianapolis Ave,Lebanon,IN,46052,(765) 482-0170
Community Ford  Inc.,http://www.communityford.info,201 Ford Drive,Mooresville,IN,46158,(317) 831-2750
Kenny Vice Ford Sales Inc,http://www.kennyviceford.net,120 South Washington Street,Ladoga,IN,47954,(765) 942-2511
Ray Skillman Ford  Inc.,http://www.rayskillmanfordgreenwood.com,1300 South U.S. 31,Greenwood,IN,46143,(317) 885-9800
Etter Ford,http://www.etterfordcrawfordsville.com,1401 Darlington Ave,Crawfordsville,IN,47933,(765) 362-5400
Matlock Ford,http://www.matlockford.com,2140 N Morton,Franklin,IN,46131,(800) 987-3673
Sauers Ford Lincoln,http://www.sauersfordmichigancity.com,3930 South Franklin Street,Michigan City,IN,46360,(219) 879-5381
Pine Ford Lincoln,http://www.pinefordlincoln.com,1522 East Lincolnway,La Porte,IN,46350,(219) 362-2102
Carriage Ford Inc,http://www.carriageford.com,908 East Lewis and Clark Parkway,Clarksville,IN,47129,(812) 284-4444
Jim ONeal Ford Inc,http://www.jimonealford.com,516 S Indiana Ave,Sellersburg,IN,47172,(812) 246-4441
Heritage Ford  Inc.,http://www.heritagefd.net,2075 Edsel Lane,Corydon,IN,47112,(800) 343-9191
Renner Motors  Inc.,http://www.rennermotors.net,3055 Central Avenue,Columbus,IN,47203,(812) 372-1561
Bob Poynter Ford  Inc.,http://www.bobpoynterfordofseymour.com,526 South Jackson Park Drive,Seymour,IN,47274,(812) 522-2040
Garlitch Ford,http://www.garlitchfordnorthvernon.com,2795 N. State Highway 7,North Vernon,IN,47265,(812) 346-6800
Hubler Ford Center  Inc.,http://www.hublerford.net,2605 E. State Road 44,Shelbyville,IN,46176,(317) 392-2557
Brad Howell Inc.,http://www.bhiford.com,613 West Main Street,Greentown,IN,46936,(765) 628-3321
Bob Schwartz Ford,http://www.bobschwartzford.com,800 N. Broadway,Peru,IN,46970,(765) 472-3673
AutoFarm Ford Lincoln,http://www.autofarmlogansport.net,221 Mall Rd.,Logansport,IN,46947,(574) 753-6294
Bill Dobson Ford of Washtn Inc,http://www.billdobsonford.net,15 South Meridian St.,Washington,IN,47501,(812) 254-3673
Jim Dobson Ford  Inc.,http://www.jimdobsonford.com,806 N Plymouth Rd,Winamac,IN,46996,(574) 946-3117
McCubbin Ford Inc,http://www.mccubbinford.com,301 East Clifty Drive,Madison,IN,47250,(812) 273-5411
