Dealer Name,website,street,city,state,zip,phone
Preaus Motor Co. Inc.,http://www.preausford.com,206 South Main,Farmerville,LA,71241,(318) 368-3805
Bay City Motors Inc,http://www.baycityford.com,2205 Veterans,Abbeville,LA,70510,(337) 893-3124
Acadiana Ford Inc.,http://www.acadianaford.com,418 East Veterans Memorial Drive,Kaplan,LA,70548,(800) 738-2922
Arceneaux Ford,http://www.newiberiaford.com,1111 West US Hwy 90,New Iberia,LA,70560,(337) 364-9721
Hub City Ford,http://www.hubcityford.net,2909 NW Evangeline Thruway,Lafayette,LA,70507,(337) 233-4500
Shetler - Corley Ford Inc,http://www.shetlercorleyford.net,1623 North Parkerson,Crowley,LA,70526,(337) 783-4600
Courtesy Ford,http://www.edgarford.com,2022 T Rees Street,Breaux Bridge,LA,70517,(337) 332-2145
Robin Ford,http://www.robinmotorco.com,2801 West Main Street,Jeanerette,LA,70544,(337) 276-4567
Hixson Autoplex,http://www.hixsonauto.net,2506 Macarthur Dr,Alexandria,LA,71301,(888) 903-1681
Marler Ford Company Inc,http://www.marlerford.com,22077 Highway 167,Dry Prong,LA,71423,(318) 641-1463
Bill Hood Ford Lincoln,http://www.billhoodfordhammond.com,1500 North Morrison Blvd.,Hammond,LA,70401,(855) 335-4923
Gateway Ford Inc,http://www.gatewayford.net,1133 Highway 51,Ponchatoula,LA,70454,(985) 386-7790
JPS Ford,http://www.jpsford.com,224 Gap Farms Road,Arcadia,LA,71001,(318) 263-2084
Jim Taylor Ford Lincoln,http://www.jimtaylorford.com,1605 North Service Road East,Ruston,LA,71270,(318) 255-2590
Hebert's Town & Country Ford Lincoln,http://www.hebertstownandcountryfordlincoln.com,405 Industrial Drive,Minden,LA,71055,(318) 377-8694
Jay Mallard Ford Lincoln  L.L.C.,http://www.jaymallard.com,601 Hudson Avenue,Jonesboro,LA,71251,(318) 259-9881
Hixson Autoplex,http://www.hixsonautoplex.com,1201 Louisville Ave.,Monroe,LA,71202,(888) 812-6475
Hollingsworth Richards Ford,http://www.hollingsworthrichardsauto.com,7787 Florida Blvd.,Baton Rouge,LA,70806,(225) 927-5555
Robinson Brothers Ford Lincoln,http://www.robinsonbrothersford.net,11455 Airline Highway,Baton Rouge,LA,70816,(225) 293-8900
All Star Ford,http://www.batonrougeford.com,2586 Range Park Drive,Denham Springs,LA,70726,(225) 490-7605
All Star Ford Lincoln,http://www.tigercountryford.com,17742 Airline Highway,Prairieville,LA,70769,(225) 490-7601
Superior Ford,http://www.superiorfordzachary.com,4303 Hwy 19,Zachary,LA,70791,(225) 654-2611
New Roads Motor Company  L.L.C.,http://www.newroadsford.com,608 Parent Street,New Roads,LA,70760,(225) 638-9041
Bennett Ford Inc,http://www.bennettford.com,11943 Ferdinand Street,Saint Francisville,LA,70775,(225) 635-3887
Wray Ford  Inc.,http://www.wrayford.net,2851 Benton Road,Bossier City,LA,71111,(318) 686-7300
Rountree Ford Lincoln,http://www.rountreefordshreveport.com,8770 Business Park Drive,Shreveport,LA,71105,(318) 798-3673
Orr Ford,http://www.orrfordofstonewall.com,250 Highway 171 South,Stonewall,LA,71078,(318) 925-3333
Claude DeBeaux Ford,http://www.claudedebeaux.com,1007 S. Pine,Vivian,LA,71082,(318) 375-3214
Sterling Ford-Lincoln,http://www.sterlingfordopelousas.com,5524 I-49 North Service Road,Opelousas,LA,70570,(337) 942-2686
T & J Ford  Inc.,http://www.tjfordinc.com,1231 West Main,Ville Platte,LA,70586,(337) 363-2153
Quality Ford Inc,http://www.qualityfordla.com,5025 Cut Off Road,Coushatta,LA,71019,(318) 932-4063
Natchitoches Ford Lincoln,http://www.natchitochesford.com,7501 Highway 1 Bypass,Natchitoches,LA,71457,(318) 352-3677
Banner Ford,http://www.bannerford.net,1943 North Causeway Boulevard,Mandeville,LA,70471,(866) 649-1425
Supreme Ford of Slidell,http://www.supremefordslidell.net,400  E. Howze Beach Road,Slidell,LA,70461,(985) 643-8900
Bubba Oustalet Ford L-M Inc,http://www.bubbaoustaletford.com,246 North Broadway,Jennings,LA,70546,(337) 824-3673
Perry Pitre Ford Co Inc,http://www.perrypitreford.com,3420 Highway 190 East,Eunice,LA,70535,(337) 457-2231
Highway Ford,http://www.highwayfordla.com,18982 Johnny B. Hall Memorial Hwy.,De Ridder,LA,70634,(337) 462-5497
Hixson Autoplex,http://www.hixsonfordleesville.net,11981 Lake Charles Highway,Leesville,LA,71446,(888) 781-0014
Billy Wood Ford,http://www.billywoodford.net,3050 West Oak Street,Jena,LA,71342,(318) 992-5570
Vaughn Ford Lincoln,http://www.vaughnfordoakdale.com,835 Highway 165 South,Oakdale,LA,71463,(318) 335-0710
Lakeside Ford,http://www.lakesidefordferriday.com,6074 Highway 84 East,Ferriday,LA,71334,(855) 410-6350
Supreme Ford,http://www.Supremefordoflaplace.net,555 Belle Terre Boulevard,La Place,LA,70068,(985) 652-8000
Don Bohn Ford,http://www.donbohnwestbank.com,3737 Lapalco Boulevard,Harvey,LA,70058,(888) 869-1082
Crescent Truck Sales Inc.,http://www.crescentfordtrucksharahan.com,6121 Jefferson Hwy,Harahan,LA,70123,(800) 575-8785
Veterans Ford,http://www.veteransfordmetairie.com,3724 Veterans Memorial Blvd.,Metairie,LA,70002,(504) 887-8410
Lamarque Ford Inc,http://www.lamarquemotors.com,3101 Williams Boulevard,Kenner,LA,70065,(504) 443-2500
Terrebonne Ford Lincoln,http://www.terrebonnemotorco.com,339 St. Charles Street,Houma,LA,70360,(985) 876-5100
Lafourche Ford Lincoln,http://www.lafourchemotorco.com,5878 Highway 1,Lockport,LA,70374,(985) 532-5547
Robichaux Ford,http://www.robichauxford.net,272 West Main Street,Thibodaux,LA,70301,(985) 446-3100
Courtesy Ford Morgan City,http://www.courtesyfordmc.net,1107 Brashear Ave.,Morgan City,LA,70380,(985) 380-2277
Cazenave Motor Co Inc,http://www.cazenavemotor.com,1205 Hwy 18,Vacherie,LA,70090,(225) 265-4040
Bolton Ford,http://www.boltonford.net,1500 East College St,Lake Charles,LA,70607,(337) 474-0070
Tarver Ford,http://www.tarverfordla.com,930 Beglis Parkway,Sulphur,LA,70663,(337) 625-3030
Adams Ford Company,http://www.adamsfordsales.com,2002 Main Street,Logansport,LA,71049,(318) 697-5561
White Ford Lincoln  L.L.C.,http://www.whitefordwinnsboro.com,4120 Front Street,Winnsboro,LA,71295,(318) 435-5101
