Dealer Name,website,street,city,state,zip,phone
Sarat Ford Lincoln,http://www.saratford.net,245 Springfield Street,Agawam,MA,01001,(888) 254-2911
Marcotte Ford Sales  Inc.,http://www.marcotte-ford.com,1025 Main Street,Holyoke,MA,01040,(800) 842-0699
Balise Ford of Wilbraham,http://www.fordofwilbraham.com,1979 Boston Road,Wilbraham,MA,01095,(413) 858-6195
Place Motor  Inc.,http://www.placemotor.com,19 Thompson Road  Rt 193,Webster,MA,01570,(800) 649-5785
Prime Ford - Auburn,http://www.primefordauburn.net,780 Washington Street,Auburn,MA,01501,(855) 762-2654
Lamoureux Ford,http://www.lamford.net,366 Main Street,East Brookfield,MA,01515,(508) 885-1000
Ford of Northampton,http://www.fordnorthhampton.net,968 Bridge Road,Northampton,MA,01060,(413) 584-2400
Imperial Ford,http://www.imperialfordmilford.com,8 Uxbridge Rd,Mendon,MA,01756,(508) 473-2800
Herb Chambers Ford of Westborough,http://www.herbchambersford.net,310 Turnpike Road,Westborough,MA,01581,(508) 366-8311
Franklin Ford,http://www.franklinfordsales.com,175 East Central Street,Franklin,MA,02038,(888) 651-0091
Sunnyside Motor Co.  Inc.,http://www.sunnysideford.com,944 S Main St,Holden,MA,01520,(508) 829-4333
Wall's Ford  Inc.,http://www.wallsford.com,2 Merrill Street,Salisbury,MA,01952,(888) 855-9177
Acton Ford Inc,http://www.acton-ford.com,76 Powdermill Rd.,Acton,MA,01720,(978) 897-7000
Gervais Ford,http://www.gervais-ford.com,5 Littleton Road,Ayer,MA,01432,(978) 772-6600
Drum Hill Ford  Inc.,http://www.drumhillfordsales.com,1212 Westford Street,Lowell,MA,01851,(978) 452-3900
Wayside Ford  Inc.,http://www.waysideford.com,428 Maple Street,Marlborough,MA,01752,(508) 460-8400
Framingham Ford,http://www.framinghamford.net,1200 Worcester Rd,Framingham,MA,01702,(800) 626-3673
Watertown Ford  Inc.,http://www.watertownfordinc.com,625 Pleasant Street,Watertown,MA,02472,(888) 857-9037
Bonnell Motors Inc,http://www.bonnellford.com,353 Cambridge St.,Winchester,MA,01890,(877) 729-9700
Muzi Motors Inc.,http://www.muzimotorsinc.com,557 Highland Ave,Needham Heights,MA,02494,(800) 318-3611
Stoneham Motor Co Inc,http://www.stonehamford.net,185 Main St,Stoneham,MA,02180,(877) 204-2822
Sentry Ford Lincoln  Inc.,http://www.sentryfordauto.com,4100 Mystic Valley Parkway,Medford,MA,02155,(781) 333-3371
Townsend Sales & Service  Inc.,http://www.townsendford.net,340 Main Street P O Box 531,Townsend,MA,01469,(978) 597-8955
York Ford Inc,http://www.yorkfords.com,1481 Broadway,Saugus,MA,01906,(781) 231-1945
Jack Madden Ford Sales  Inc.,http://www.jackmaddenfordsales.com,825 Providence Highway,Norwood,MA,02062,(888) 846-4871
Danvers Motor Company,http://www.danversmotors.com,106 Sylvan Street,Danvers,MA,01923,(978) 774-0727
Autofair Ford of Haverhill,http://www.autofairfordofhaverhill.com,501 Broadway,Haverhill,MA,01832,(978) 373-3878
Herb Chambers Ford,http://www.herbchambersford.biz,75 Granite Street,Braintree,MA,02184,(877) 876-6584
Minuteman Trucks  Inc.,http://www.minutemanfordtrucks.com,2181 Providence Highway,Walpole,MA,02081,(508) 668-3112
Quirk Ford,http://www.quirk-ford.com,540 Southern Artery,Quincy,MA,02169,(617) 249-5660
Rodman Ford Sales Inc,http://www.rodmanford.net,45 Washington St  Us Rt 1,Foxboro,MA,02035,(508) 543-3333
Kelly Ford  Inc.,http://www.kellyfordbeverly.com,211 Rantoul Street Route 1A,Beverly,MA,01915,(978) 922-0059
Mathieu Ford Sales Inc.,http://www.mathieufordsales.com,664 Spring St Route 12,Winchendon,MA,01475,(978) 297-0001
Ipswich Ford  Inc.,http://www.ipswichford.net,105 County Road,Ipswich,MA,01938,(978) 356-6850
Jannell Motors Inc,http://www.jannellford.com,2000 Washington Street,Hanover,MA,02339,(781) 982-4500
Baystate Ford  Inc.,http://www.baystatefordinc.com,703 Washington Street,South Easton,MA,02375,(888) 433-4496
Grieco Ford,http://www.griecoford.net,1651 Route 44,Raynham,MA,02767,(888) 668-4129
Colonial Ford  Inc.,http://www.colonialfordsales.net,147 Samoset Street,Plymouth,MA,02360,(508) 746-3400
Wareham Ford  Inc.,http://www.warehamfordinc.com,2628 Cranberry Hwy.,Wareham,MA,02571,(888) 295-6995
First Ford,http://www.firstford.net,292 William Canning Boulevard,Fall River,MA,02721,(508) 730-1000
Ashley Ford Sales,http://www.ashleyfordofnewbedford.com,395 Mt Pleasant Street,New Bedford,MA,02746,(508) 996-5611
Chatham Ford,http://www.chathamford.net,781 Main Street,Chatham,MA,02633,(508) 945-0500
Balise Ford of Cape Cod,http://www.fordofhyannis.com,90 High School Road,Hyannis,MA,02601,(800) 561-5835
Don Allen Auto Service Inc.,http://www.donallenford.com,24 Polpis Road,Nantucket,MA,02554,(508) 228-0134
Ford of Greenfield,http://www.fordofgreenfield.net,1 Main Street,Greenfield,MA,01301,(413) 773-5455
The Johnson Dealerships  Inc.,http://www.johnsondealerships.net,694 East Street,Pittsfield,MA,01201,(413) 443-6431
