Dealer Name,website,street,city,state,zip,phone
Clark Ford  Inc.,http://www.clarkfordinc.com,1410 Highway 25 South,Amory,MS,38821,(662) 257-1900
Country Ford Inc,http://www.country-ford.com,95 Goodman Road East,Southaven,MS,38671,(888) 867-3993
Homer Skelton Ford,http://www.homerskelton.com,6950 Hanna Cove,Olive Branch,MS,38654,(662) 890-8875
Herring Ford  Inc.,http://www.herringfordlincoln.com,820 Memorial Blvd,Picayune,MS,39466,(601) 798-8682
Andrews Ford   Inc.,http://www.andrewsford.com,108 Old Highway 98 East,Tylertown,MS,39667,(601) 876-2166
Natchez Ford Lincoln,http://www.natchezford.com,14 Sgt S Prentiss Drive,Natchez,MS,39120,(601) 445-0076
Keith White Ford-Lincoln,http://www.keithwhitefl.com,2102 Veterans Blvd.,Mccomb,MS,39648,(601) 684-3970
Centreville Motor Company,http://www.centrevillemotors.com,475 Highway 24,Centreville,MS,39631,(601) 645-5328
Charlie Henderson Ford  Inc.,http://www.charliehendersonford.net,105 Highway 90,Waveland,MS,39576,(228) 467-9005
Vicksburg Ford Lincoln  Inc.,http://www.vicksburgford.net,2431 North Frontage Road,Vicksburg,MS,39180,(601) 636-5323
Premier Ford Lincoln,http://www.premierfordcolumbus.com,2120 Highway 45 North,Columbus,MS,39705,(662) 327-3673
Starkville Ford-Lincoln  Inc,http://www.starkvillefordsales.net,12249 Hwy 182,Starkville,MS,39759,(662) 323-1900
Davis Ford Sales Inc.,http://www.davisfordsales.com,904 West Main,Fulton,MS,38843,(662) 862-3711
Metro Ford Auto Sales Inc.,http://www.metrofordautosales.com,1000 Barnes Crossing Rd.,Tupelo,MS,38804,(662) 841-1000
Cartwright Ford  Inc.,http://www.cartwrightford.com,1001 N. Second Street,Booneville,MS,38829,(662) 728-5381
Community Ford  Inc.,http://www.communityford.com,706 Carter Ave.,New Albany,MS,38652,(800) 601-6288
Farrow - Ward Ford  Inc.,http://www.farrow-wardford.com,1524 City Avenue  North,Ripley,MS,38663,(662) 837-3001
Long-Lewis Ford Lincoln of Corinth  Inc.,http://www.longlewiscorinth.com,1500 South Harper Road,Corinth,MS,38834,(662) 287-3184
Hallmark Ford  LLC,http://www.hallmarkford.net,921 Highway 6 West,Batesville,MS,38606,(662) 563-7684
Belk Ford  Inc.,http://www.belkford.net,447 Highway 6 West,Oxford,MS,38655,(662) 234-4661
Gray-Daniels Ford Lincoln,http://www.graydanielsonline.com,201 Octavia Drive,Brandon,MS,39042,(601) 825-2801
Watson Quality Ford  Inc.,http://www.watsonqualityford.net,6130 I-55 North,Jackson,MS,39211,(601) 956-7000
Rogel Ford,http://www.rogelford.com,26167 Highway 27,Crystal Springs,MS,39059,(601) 892-3673
Forest Ford  Inc.,http://www.forestfordinc.com,1126 Highway 35 North,Forest,MS,39074,(601) 469-3421
Sullivan Ford Lincoln  Inc.,http://www.sullivanford.net,759 Magee Drive,Brookhaven,MS,39601,(601) 757-4536
Marshall Ford Co  Inc.,http://www.marshallfordco.com,14843 Highway 16 West,Philadelphia,MS,39350,(601) 774-9222
Cannon Ford  Lincoln  LLC,http://www.cannonford.net,607 North Davis,Cleveland,MS,38732,(662) 843-2785
Woolwine Ford Lincoln  Inc.,http://www.woolwineford.com,3040 Highway 49,Collins,MS,39428,(601) 765-4461
Laurel Ford Lincoln  Inc.,http://www.laurelfordinc.com,2018 Highway 15 North,Laurel,MS,39440,(601) 649-4511
Courtesy Motors Inc,http://www.courtesyfordsales.net,1410 West Pine St,Hattiesburg,MS,39401,(601) 544-8111
Mack Grubbs Ford  Inc.,http://www.mackgrubbsford.com,1494 Highway 98 East,Columbia,MS,39429,(601) 731-1953
Pine Belt Ford,http://www.pinebeltford.net,120 Highway 589,Purvis,MS,39475,(601) 794-8543
Astro Ford,http://www.astroford.net,10350 Auto Mall Parkway,D'Iberville,MS,39540,(877) 360-6105
Butch Oustalet Ford,http://www.butchoustaletford.com,9274 Highway 49 N.,Gulfport,MS,39503,(228) 863-5525
Estabrook Motor Co Inc,http://www.estabrookford.net,3689 14th Street,Pascagoula,MS,39567,(228) 762-2641
Hammett Motor Company,http://www.hammettmotorco.com,16041 N Jackson St,Durant,MS,39063,(662) 653-3141
Kirk Brothers Ford-Lincoln  LLC,http://www.kirkbrothersford.com,1512 Hwy 82 West,Greenwood,MS,38930,(662) 453-6131
Kirk Auto Company,http://www.kirkautoco.com,235 SW Frontage Rd.,Grenada,MS,38901,855-401-6662
Crowson  Auto World,http://www.crowsonautoworld.net,541 Highway 15 North,Louisville,MS,39339,(662) 773-8070
New South Ford,http://www.newsouthford.net,1200 North Frontage Road,Meridian,MS,39301,(601) 693-6821
