Dealer Name,website,street,city,state,zip,phone
Beartooth Ford,http://www.beartoothford.net,44 N. 5th St.,Columbus,MT,59019,(406) 322-5346
Archie Cochrane Ford,http://www.archieford.com,2133 King Avenue West,Billings,MT,59102,(877) 692-8305
Laurel Ford,http://www.laurelford.com,500 S. E. Fourth Street,Laurel,MT,59044,(406) 238-4000
Bozeman  Ford,http://www.fordofbozeman.com,2900 North 19th Street,Bozeman,MT,59718,(406) 587-1221
Denny Menholt Ford,http://www.dennymenholtford.net,50 Ford Lane,Butte,MT,59701,(406) 494-6333
Eissinger Equipment/Savage Ford  Inc.,http://www.eissingerford.com,Hwy 200 Box 19,Circle,MT,59215,(406) 485-2751
Courtesy Ford,http://www.courtesyfordconrad.com,514 South Main,Conrad,MT,59425,(406) 278-5533
Northern Ford,http://www.northernford.net,120 W. Main,Cut Bank,MT,59427,(800) 823-1234
Mills Motor Co.  Inc.,http://www.millsmotor.net,302 Central Ave.,Fairfield,MT,59436,(406) 467-2511
Heberle Ford,http://www.heberleford.com,1825 Front Street,Forsyth,MT,59327,(406) 346-2221
Jim Taylor Motors,http://www.jimtaylorford.net,2500 St. Charles Street,Fort Benton,MT,59442,(406) 622-3321
Hi - Line Ford Inc,http://www.hilineford.net,Hwy #2 East,Glasgow,MT,59230,(866) 528-2141
American Ford,http://www.americanfordmt.com,100 Ford Avenue,Glendive,MT,59330,(406) 345-3673
Bison Motor Co.,http://www.bisonford.com,500 10th Avenue South,Great Falls,MT,59405,(800) 327-3673
Lithia Ford of Missoula,http://www.lithiafordmissoula.net,3943 Brooks Street,Missoula,MT,59804,(406) 251-2525
Bob Smith Ford  Inc.,http://www.bobsmithhardinford.com,416 Center Avenue,Hardin,MT,59034,(406) 665-1211
Havre Ford,http://www.havreford.net,1991 Highway 2 West,Havre,MT,59501,(406) 265-2246
Helena Ford Lincoln,http://www.helenamotorsford.com,3365  Hwy 12 E PO Box 4489,Helena,MT,59604,(406) 442-6310
Broadwater Ford,http://www.broadwaterford.net,7675 Highway 287 North,Townsend,MT,59644,(406) 266-5207
Kalispell Ford,http://www.kalispellford.com,1177 East Idaho Street,Kalispell,MT,59901,(406) 755-3673
Whitefish Ford,http://www.whitefishford.com,6331 Highway 93 South,Whitefish,MT,59937,(406) 863-2511
Snowy Mountain Motors,http://www.snowymountainmotors.net,U.S. Highway 87 West,Lewistown,MT,59457,(406) 538-4014
Timberline Auto Center,http://www.timberford.com,617 Mineral Ave,Libby,MT,59923,(406) 293-4128
Mac's Frontierland Inc,http://www.macsford.com,3016 Valley Drive East,Miles City,MT,59301,(406) 234-2456
Rehbein Ford  Inc.,http://www.rehbeinford.net,7467 MT Highway 200,Plains,MT,59859,(406) 826-3381
Don Aadsen Ford,http://www.donaadsenford.net,1718 Highway 93 South,Ronan,MT,59864,(406) 676-4420
Eagle Country Ford,http://www.eaglecountryfordsales.com,215 East Main,Sidney,MT,59270,(406) 433-1810
Fox Ford  Inc.,http://www.foxfordwolfpoint.com,101 Anaconda,Wolf Point,MT,59201,(406) 653-1350
