Dealer Name,website,street,city,state,zip,phone
Bill Dube Ford,http://www.billdubeford.net,40 Dover Point Road,Dover,NH,03820,(603) 749-5500
Portsmouth Ford,http://www.portsmouthford.net,400 Spaulding Turnpike  Route 16,Portsmouth,NH,03801,(603) 433-1221
Granite Ford,http://www.graniteford.net,8 Crane Road,Rochester,NH,03867,(603) 335-3400
Hampton Ford Inc,http://www.hampton-ford.com,177 Lafayette Rd,North Hampton,NH,03862,(800) 888-3017
McFarland Ford Sales Inc.,http://www.mcfarland-ford.com,151 Portsmouth Ave.,Exeter,NH,03833,(800) 639-3673
Salem Ford,http://www.salemford.net,470 South Broadway,Salem,NH,03079,(603) 898-9766
Best Ford Lincoln,http://www.bestfordinc.com,579 Amherst Street,Nashua,NH,03063,(603) 889-0161
Ford of Londonderry,http://www.fordoflondonderry.net,33 Nashua Rd  Rt 102,Londonderry,NH,03053,(603) 434-4141
AutoFair Ford  LP,http://www.autofairfordinc.com,1475 S Willow Street,Manchester,NH,03103,(866) 499-5616
Rountree Ford,http://www.rountreefordkeene.com,119 Monadnock Highway,Swanzey,NH,03446,(603) 283-5900
Unique Ford  Inc.,http://www.uniqueford.net,330 Mast Rd Route 114,Goffstown,NH,03045,(603) 641-8400
Hillsboro Ford,http://www.hillsboroford.net,16 Antrim Road,Hillsboro,NH,03244,(800) 477-3673
John Grappone Ford,http://www.grapponefordnh.com,506 State Route 3A,Bow,NH,03304,(888) 560-4718
M & M Ford  Inc.,http://www.m-mford.net,Route 28 North,Epsom,NH,03234,(603) 736-9323
AutoServ Ford,http://www.autoservfordinc.com,40 East Main Street,Tilton,NH,03276,(603) 286-3141
Robert H. Irwin Motors  Inc.,http://www.irwinzone.net,59 Bisson Avenue,Laconia,NH,03246,(603) 524-4922
MacDonald Motors Inc,http://www.macdonaldmotors.net,61 East Conway Road,Center Conway,NH,03813,(603) 356-9341
Flanders & Patch Motor Sales  Inc.,http://www.flanderspatch.net,Miracle Mile  Route 4 Exit 19  I 89,Lebanon,NH,03766,(603) 448-3363
North Country Motor Sales  Inc.,http://www.ncfordinc.com,29 Middle Street,Lancaster,NH,03584,(603) 788-2311
Berlin City Ford-Lincoln,http://www.berlincityford.com,485 Main Street,Gorham,NH,03581,(603) 752-6644
Meredith Motor Co  Inc.,http://www.meredithford.com,14 Town West Rd,Plymouth,NH,03264,(603) 536-4521
