Dealer Name,website,street,city,state,zip,phone
Phil Long Ford of Raton,http://www.phillongfordofraton.net,223 S. Second Avenue,Raton,NM,87740,(575) 445-6900
Vision Ford Lincoln  Inc.,http://www.visionfordsales.com,1500 S White Sands Blvd,Alamogordo,NM,88310,(800) 376-8474
Power Ford,http://www.powerfordnm.com,1101 Montano N.E.,Albuquerque,NM,87107,(505) 766-6600
Rich Ford Sales  Inc.,http://www.richardsonfordsales.com,8601 Lomas Blvd. NE,Albuquerque,NM,87112,(505) 292-0000
Don Chalmers Ford,http://www.dcford.com,2500 Rio Rancho Blvd  S.E.,Rio Rancho,NM,87124,(505) 897-2500
Brad Francis Ford,http://www.bradfrancisfordloslunas.com,499 Emilio Lopez Road NW,Los Lunas,NM,87031,(505) 866-3185
Artesia Ford Sales,http://www.artesiaford.com,307 North First St,Artesia,NM,88210,(575) 746-3578
Carlsbad Ford Lincoln,http://www.carlsbadford.com,2802 West Pierce,Carlsbad,NM,88220,(575) 885-3101
Hamilton Big Country Ford  Inc,http://www.hamiltonbigcountryford.net,2400 E Mabry Drive,Clovis,NM,88101,(575) 762-4427
Big Valley Automotive Ford  Inc.,http://www.bigvalleyautoford.com,1115 North Chicago,Portales,NM,88130,(575) 356-8581
Jack Key Ford Lincoln,http://www.jackkeyford.com,1512 East Pine Street,Deming,NM,88030,(575) 546-2765
Capitol Ford Lincoln  LLC,http://www.capitolfordsantafe.com,4490 Cerrillos Road,Santa Fe,NM,87507,(800) 718-5855
Ziems Ford Corners,http://www.ziemsfordcorners.com,5700 E. Main Street,Farmington,NM,87402,(505) 325-1961
Gurley Motor Company,http://www.gurleymotorford.com,701 West Coal Avenue,Gallup,NM,87301,(800) 722-4881
Ed Corley Ford Sales  Inc.,http://www.edcorleyford.com,1870 West Santa Fe Avenue,Grants,NM,87020,(505) 285-4695
Permian Ford-Lincoln  Inc.,http://www.permianford.net,1000 North Dal Paso Street,Hobbs,NM,88240,(575) 393-6176
Borman Motor Company,http://www.bormanmotorcompany.com,470 West Boutz,Las Cruces,NM,88005,(575) 525-4500
Smith Ford,http://www.smithfordlordsburg.com,412 East Motel Drive,Lordsburg,NM,88045,(575) 542-3551
Roswell Ford Lincoln  Inc.,http://www.roswellford.com,821 North Main Street,Roswell,NM,88201,(888) 881-7087
Ruidoso Ford Lincoln  Inc.,http://www.ruidosoford.com,107 Highway 70,Ruidoso,NM,88345,(575) 378-4400
Lawley's Team Ford,http://www.lawleysteamford.com,1235 U. S. 180 East,Silver City,NM,88061,(575) 388-1818
