Dealer Name,website,street,city,state,zip,phone
Murphy Ford Co,http://www.murphyfordonline.com,Highland Ave Exit 3 off I-95,Chester,PA,19013,(888) 389-8443
Garnet Ford Inc.,http://www.garnetford.com,Routes 1 And 202,Chadds Ford,PA,19317,(610) 358-5600
Fred Beans Ford of West Chester  Inc.,http://www.fbwestchester.com,1155 West Chester Pike,West Chester,PA,19382,(610) 696-4700
Robin Ford,http://www.robinfordglenolden.com,100 North Macdade Blvd,Glenolden,PA,19036,(610) 586-3600
Springfield Ford Lincoln,http://www.springfieldford.net,50 Baltimore Pike,Springfield,PA,19064,(610) 544-0700
Pacifico Marple Ford Lincoln,http://www.pacificomarpleford.com,3015 West Chester Pike,Broomall,PA,19008,(800) 733-9170
Brian Hoskins Ford,http://www.brianhoskinsfordcoatesville.com,2601 East Lincoln Highway,Coatesville,PA,19320,(888) 232-0450
Pacifico Ford Inc.,http://www.pacificoford.net,6701 Essington Avenue,Philadelphia,PA,19153,(215) 492-1700
Sloan Motors Inc.,http://www.sloanmotorsinc.com,415 West Lincoln Highway,Exton,PA,19341,(610) 363-2870
Paoli Ford,http://www.matthewspaoliford.com,100 West Lancaster Avenue,Paoli,PA,19301,(610) 644-4700
Stoner - Wade Ford  Inc.,http://www.stonerwade.com,415 West Fourth Street,Quarryville,PA,17566,(717) 786-7331
John Kennedy Ford,http://www.johnkennedyfordphoenixville.net,730 Valley Forge Road,Phoenixville,PA,19460,(610) 917-8200
John Kennedy Ford,http://www.conshoford.com,1403 Ridge Pike,Conshohocken,PA,19428,(800) 951-2068
Apple Ford,http://www.applefordpa.com,3250 Cape Horn Road,Red Lion,PA,17356,(717) 244-7677
Riverside Motor Sales,http://www.riversidemotorsales.com,4497 National Pike,Markleysburg,PA,15459,(724) 329-4537
Tri Star Ford Somerset  Inc.,http://www.tristarfordsomerset.com,1260 North Center Avenue,Somerset,PA,15501,(814) 445-6575
Keystone Ford,http://www.keystoneford.com,301 Walker Road,Chambersburg,PA,17201,(717) 264-5104
New Holland Auto Group,http://www.newhollandford.com,508 West Main Street,New Holland,PA,17557,(717) 354-4901
Gene Latta Ford Inc,http://www.genelatta-ford.com,1565 Carlisle Pike,Hanover,PA,17331,(717) 633-1999
L & L Ford,http://www.llfordofeb.com,314 Harrisburg St,East Berlin,PA,17316,(717) 259-6334
McCafferty Ford Sales Inc,http://www.mccaffertyfordsales.com,1939 East Lincoln Highway,Langhorne,PA,19047,(877) 692-8282
Fred Beans Ford of Newtown,http://www.fredbeansfordnewtown.net,10 North Sycamore Street,Newtown,PA,18940,(215) 968-3806
John Kennedy Ford,http://www.johnkennedyautomotive.com,620 Bustleton Pike,Feasterville,PA,19053,(800) 680-6979
Chapman Ford Sales  Inc.,http://www.chapmanfordinc.com,9371 Roosevelt Boulevard,Philadelphia,PA,19114,(866) 577-2408
Dunphy Motors,http://www.dunphymotorsinc.com,7700 Frankford Ave,Philadelphia,PA,19136,(215) 624-6700
John Kennedy Ford Jenkintown,http://www.johnkennedyfordofjenkintown.com,1650 The Fairway,Jenkintown,PA,19046,(888) 503-1980
Chapman Ford of Horsham,http://www.chapmanfordhorsham.com,1100 Easton Road  Route 611,Horsham,PA,19044,(888) 470-9516
Fred Beans Ford Lincoln,http://www.fredbeansford.net,876 North Easton Road,Doylestown,PA,18902,(888) 854-8597
Bergey's Ford  Inc.,http://www.bergeysford.com,700 North Bethlehem Pike,Ambler,PA,19002,(215) 793-3700
Bergey's Ford of Lansdale  Inc.,http://www.bergeysfordoflansdale.net,301 East Main Street,Lansdale,PA,19446,(215) 855-1153
Ciocca Ford,http://www.faulknerfordofsouderton.com,3470 Bethlehem Pike,Souderton,PA,18964,(888) 220-1893
Koch 33 Ford,http://www.koch33ford.net,3810 Hecktown Road,Easton,PA,18045,(800) 565-9191
Nazareth Ford,http://www.nazareth-ford.net,4067 Jandy Boulevard,Nazareth,PA,18064,(866) 601-7744
Bethlehem - Sub Motor Sales Inc,http://www.bethlehemford.com,2135 W Union Blvd,Bethlehem,PA,18018,(610) 867-8641
Ciocca Ford,http://www.cioccafordquakertown.com,321 S. West End Blvd.,Quakertown,PA,18951,(215) 536-8600
Ray Price Stroud Ford Lincoln,http://www.raypricestroudford.com,301 North Ninth Street,Stroudsburg,PA,18360,(570) 420-1100
Keyser & Miller Ford Inc,http://www.keysermillerford.net,8 East Main Street,Collegeville,PA,19426,(610) 489-9366
Gilboy Automotive Group,http://www.gilboyford.com,2805 Macarthur Rd,Whitehall,PA,18052,(610) 434-4211
Haldeman Ford Lincoln  Inc.,http://www.haldeman-ford.com,2443 Lehigh St   at I-78 and Rt 309,Allentown,PA,18103,(610) 791-4900
Sands Ford of Red Hill,http://www.sandsfordofredhill.com,602 Main Street,Red Hill,PA,18076,(215) 679-7911
Lehighton Ford,http://www.lehightonford.com,54 Blakeslee Boulevard East,Lehighton,PA,18235,(888) 505-3559
Simmons Rockwell Ford of Hallstead,http://www.simmonsrockwellfordofhallstead.com,23761 State Route 11,Hallstead,PA,18822,(570) 879-2134
Montrose Motors,http://www.montrosemotors.com,376 Grow Avenue,Montrose,PA,18801,(570) 278-1188
Williams Ford Lincoln,http://www.williamsfordofathens.com,205 South Main Street,Athens,PA,18810,(570) 888-2366
Cole & Burd Ford Inc.,http://www.coleandburdford.com,1989 South Main Street,Mansfield,PA,16933,(570) 662-2141
Sherwood Groves Ford,http://www.sherwoodgrovesford.com,454 Golden Mile Road,Towanda,PA,18848,(800) 462-9682
Wayne County Ford,http://www.waynecountyford.net,971 Texas Palmyra Hwy,Honesdale,PA,18431,(570) 251-3673
Warren Midtown Motors Inc,http://www.warrenmidtownmotors.net,1995 Market Street,Warren,PA,16365,(814) 723-5400
Corry Ford,http://www.humesford.net,13626 Route 6,Corry,PA,16407,(814) 665-8207
Bradford Fairway Sales & Leasing  Inc.,http://www.bradfordfairwayford.com,472 East Main St,Bradford,PA,16701,(814) 368-7166
Kightlinger Motors  Inc.,http://www.kightlingermotor.com,358 Route 6 West,Coudersport,PA,16915,(814) 274-9660
Preston Ford  Inc.,http://www.preston1.com,1251 E State Street,Sharon,PA,16146,(724) 981-8140
Phil Fitts Ford & Lincoln,http://www.philfitts.com,3250 Wilmington Rd,New Castle,PA,16105,(724) 658-3521
Bill McCandless Ford,http://www.billmccandlessford.com,8416 Sharon-Mercer Road,Mercer,PA,16137,(724) 662-3730
Ron Lewis Ford,http://www.ronlewisford.net,201 Seventh Ave.,Beaver Falls,PA,15010,(724) 843-1000
Phil Godfrey Ford,http://www.philgodfreyford.com,124 Main Street,Greenville,PA,16125,(724) 588-1500
Lake View Ford,http://www.lakeviewford.net,12381 Conneaut Lake Rd,Conneaut Lake,PA,16316,(814) 382-5485
Crivelli Ford,http://www.crivelliford.net,2085 Brodhead Road,Aliquippa,PA,15001,(724) 857-0400
Star Lake Ford  LLC,http://www.starlakeford.com,1212 Main St.,Burgettstown,PA,15021,(724) 947-3381
Moon Township Ford,http://www.moontownshipford.net,5304 University Blvd,Moon Township,PA,15108,(412) 269-2255
Baierl Ford,http://www.nl-ford.com,540 S. Main St.,Zelienople,PA,16063,(724) 452-7530
Shults Ford Lincoln  Inc.,http://www.shultsfordinc.com,10401 Perry Highway,Wexford,PA,15090,(724) 934-2388
Bob Ferrando Ford Lincoln Sales  Inc.,http://www.bobferrandofl.com,Rd #2 Route 20 E,Girard,PA,16417,(814) 774-5678
Champion Ford Edinboro,http://www.championfordedinboro.net,Rt. 99,Edinboro,PA,16412,(814) 734-1616
Washington Ford,http://www.washford.com,507 Washington Rd.,Washington,PA,15301,(724) 223-5100
Woltz & Wind Ford,http://www.woltzandwindford.net,2100 Washington Pike,Heidelberg,PA,15106,(866) 384-2889
Jerry Taylor Ford Sales,http://www.jerrytaylorford.net,1 Taylor Plaza  Rt 58 West,Grove City,PA,16127,(724) 748-4790
Kenny Ross Ford,http://www.kennyrossford.net,Route 30 @ Blackhill Rd,Adamsburg,PA,15611,(724) 864-3601
Jim Shorkey Ford,http://www.jimshorkeyford.net,1234 Long Run Road,White Oak,PA,15131,(412) 751-2130
Day Ford,http://www.dayford.net,3696 Wm Penn Hwy,Monroeville,PA,15146,(412) 856-0600
Bud Smail Ford Lincoln,http://www.smailford.com,5110 Route 30 East,Greensburg,PA,15601,(724) 837-4210
C. Harper Ford Inc.,http://www.charperford1.com,100 Harper Drive,Belle Vernon,PA,15012,(724) 929-2900
John Meegan Ford Inc,http://www.meeganfordinc.com,Route 119,Mount Pleasant,PA,15666,(724) 547-3552
Latrobe Ford  Inc.,http://www.latrobeford.net,1595 Mission Road,Latrobe,PA,15650,(724) 537-7723
Sturman & Larkin Ford  Inc.,http://www.sturmanlarkin.com,900 Regis Avenue,Pittsburgh,PA,15236,(412) 892-2300
Davies Ford Inc. of Charleroi,http://www.daviescharleroi.com,728 Mckean Avenue,Charleroi,PA,15022,(724) 483-5541
Shults Ford  Inc.,http://www.shultsford.net,1300 Gulf Lab Road,Pittsburgh,PA,15238,(412) 828-2300
Kenny Ross Ford South  Inc.,http://www.kennyrosspittsburgh.com,3200 Library Road,Pittsburgh,PA,15234,(412) 881-0001
Glenn Bush Ford Inc.,http://www.glennbushfordapollo.com,Route 56,Apollo,PA,15613,(724) 478-4113
Allegheny Ford Truck Sales Inc,http://www.alleghenyford.net,6th & Bingham Sts.,Pittsburgh,PA,15203,(412) 481-9600
Davies Ford  Inc.,http://www.daviesford.net,Rte 119 N  2551 Memorial Blvd.,Connellsville,PA,15425,(724) 628-2720
Town & Country Ford,http://www.townandcountryfordligonier.com,3697 Rt. 711,Ligonier,PA,15658,(724) 238-9577
Solomon Ford  LLC,http://www.solomonford.com,502 National Pike West,Brownsville,PA,15417,(724) 785-5500
Tri-Star Ford,http://www.tri-starford.com,930 Route 22 West,Blairsville,PA,15717,(724) 459-9300
Cochran Ford,http://www.cochranfordnatronaheights.com,110 Route 908,Natrona Heights,PA,15065,(724) 294-2000
Ford of Uniontown,http://www.fordofuniontown.com,1 Superior Way,Uniontown,PA,15401,(724) 425-5980
Butler County Ford,http://www.butlercountyford.net,400 S Main St,Butler,PA,16001,(724) 287-2766
Haldeman Ford of Kutztown  Inc.,http://www.haldemanfordofkutztown.net,15465 Kutztown Road,Kutztown,PA,19530,(610) 683-3553
Fred Beans Ford of Boyertown,http://www.fredbeansboyertown.com,525 Route 100 North,Boyertown,PA,19512,(610) 367-2081
John Kennedy Ford Pottstown,http://www.johnkennedyfordofpottstown.com,3189 West Ridge Pike,Pottstown,PA,19464,(800) 790-8132
Kovatch Ford Inc,http://www.kovatchford.net,One Industrial Complex,Nesquehoning,PA,18240,(570) 669-5111
Manderbach Ford,http://www.manderbachford.net,4450 Fifth Street Highway,Temple,PA,19560,(610) 929-3683
Rottet Motors  Inc.,http://www.rottetmotorsinc.com,117 S Greenwood Street,Tamaqua,PA,18252,(570) 668-2130
Tri Star Ford Kittanning Inc,http://www.tristarfordkittanning.com,151 Walnut Street,Kittanning,PA,16201,(724) 543-1015
Courtesy Ford Lincoln,http://www.courtesyforddirect.com,401 Pleasant Valley Blvd.,Altoona,PA,16602,(814) 942-3000
Stuckey Ford  Inc.,http://www.stuckeyford.com,500 Broad St.,Hollidaysburg,PA,16648,(814) 695-9862
Tri Star Ford of Tyrone,http://www.tristarfordtyrone.com,4548 East Pleasant Valley Blvd.,Tyrone,PA,16686,(814) 684-4100
Freedom Ford Sales  Inc.,http://www.freedomfordofpa.com,3941 Admiral Peary Hwy,Ebensburg,PA,15931,(814) 471-7623
Impala Motors Inc,http://www.impalamotors.com,668 Railroad Street,South Fork,PA,15956,(814) 495-4677
Huston Ford,http://www.hustonford.com,10719 William Penn Highway,Huntingdon,PA,16652,(814) 643-3430
Laurel Ford Lincoln,http://www.laurelfordwindber.com,135 Ford Drive,Windber,PA,15963,(814) 467-5565
Luther Ford Lincoln,http://www.lutherford.com,3629 Route 119 Hwy South,Homer City,PA,15748,(724) 479-8083
B & L Ford Inc,http://www.blford.com,130 E. Centre Street,Ashland,PA,17921,(570) 875-4417
Sands Ford of Pottsville,http://www.sandsfordofpottsville.com,440 N Claude A Lord Blvd  Route 61,Pottsville,PA,17901,(570) 622-1991
Palmer H Reed Motor Sales,http://www.reedmotors.com,1133 W. Main St.  P.O. Box 145,Valley View,PA,17983,(570) 682-3874
Independence Ford Inc,http://www.independenceford.com,3101 Columbia Boulevard,Bloomsburg,PA,17815,(800) 924-1214
Jack Metzer  Inc.,http://www.jackmetzerford.com,RD #4 Route 11,Danville,PA,17821,(800) 326-9317
Ken Pollock Ford-Lincoln  Inc.,http://www.kenpollockfordberwick.com,1120 West Front Street,Berwick,PA,18603,(570) 752-2797
Barber Ford of Hazleton,http://www.barber-ford.com,1112 North Church Street,Hazleton,PA,18201,(570) 454-2414
Sunbury Motor Co,http://www.sunburyford.com,943 North Fourth Street,Sunbury,PA,17801,(570) 286-7746
Selinsgrove Ford,http://www.selinsgroveford.net,10 N Susquehanna Trail,Selinsgrove,PA,17870,(570) 374-8131
Feussner Ford Inc,http://www.feussnersford.com,200 East South Street,Freeland,PA,18224,(570) 636-3920
Bedford Ford Lincoln  Inc.,http://www.bedfordford.com,6985 Lincoln Highway,Bedford,PA,15522,(814) 623-8154
B J Maurer Motor Company  Inc.,http://www.bjmaurerford.com,327 Alwine Road,Boswell,PA,15531,(800) 322-1924
Fox Ford  Inc.,http://www.foxfordwaynesburg.com,743 East High Street,Waynesburg,PA,15370,(724) 627-3151
Joel Confer Ford of Bellefonte,http://www.conferworkmanford.com,2892 Benner Pike,Bellefonte,PA,16823,(814) 355-5445
State College Ford Lincoln Inc,http://www.statecollegeford.net,3140 West College Ave,State College,PA,16801,(814) 238-5041
Murray Motors Lock Haven,http://www.murraymotorslockhaven.com,910 Bellefonte Avenue,Lock Haven,PA,17745,(570) 748-6783
Lake Ford Lincoln,http://www.lakefordlincoln.com,429 South Main Street,Lewistown,PA,17044,(717) 248-0151
Pat & Dan Del Balso Ford,http://www.delbalsofordkingston.com,249 Market Street,Kingston,PA,18704,(570) 288-4501
Coccia Ford Lincoln,http://www.cocciaford.com,577 E Main Street,Wilkes-Barre,PA,18702,(570) 823-8888
Murray Motor Company,http://www.murraymotorco.com,85 Griffith Road,Muncy,PA,17756,(570) 546-2222
Barber Ford,http://www.barberfordinc.net,962 Wyoming Ave,Exeter,PA,18643,(570) 602-0226
Suppes Ford,http://www.suppesford.net,101 Main Street,Johnstown,PA,15901,(800) 985-1597
Spangler Motors,http://www.spanglermotors.net,5620 PA 405,Milton,PA,17847,(570) 742-8725
Blaise Alexander Ford  Inc.,http://www.alexanderford.net,2265 Old Turnpike,Lewisburg,PA,17837,(570) 524-7267
Fairfield Ford,http://www.fairfieldautosales.com,5071 Lycoming Mall Dr.,Montoursville,PA,17754,(570) 368-8121
Tom Masano Ford  Inc.,http://www.tommasanoford.com,1600 Lancaster Avenue,Reading,PA,19607,(877) 866-6272
Blaise Alexander Ford of Ephrata,http://www.blaiseford.net,620 North Reading Road,Ephrata,PA,17522,(717) 733-4700
Zook Motors  Inc,http://www.zookmotorsinc.com,25 Willow Run Drive,Kane,PA,16735,(877) 549-7225
Family Ford of PA,http://www.familyfordofpa.net,170 York Road,Carlisle,PA,17013,(717) 249-2215
Bob Ruth Ford  Inc.,http://www.bobruthford.net,700 North U.S. Route 15,Dillsburg,PA,17019,877-818-1593
Fred Beans Ford of Mechanicsburg,http://www.fredbeansfordmechanicsburg.net,6320 Carlisle Pike,Mechanicsburg,PA,17050,(877) 275-2914
L. B. Smith Ford-Lincoln  Inc.,http://www.lbsmithford.com,1100 Market Street,Lemoyne,PA,17043,(717) 761-6700
Maguire's Ford  Inc.,http://www.maguiresduncannon.com,Main & Fisher Streets,Duncannon,PA,17020,(717) 834-3111
Parsons Interstate Ford  LLC,http://www.parsonsfordofpa.net,196 Walnut Bottom Road,Shippensburg,PA,17257,(888) 436-3673
Hoffman Ford Sales  Inc.,http://www.hoffmanford.net,5200 Jonestown Road,Harrisburg,PA,17112,(717) 657-1600
Beshore And Koller Inc.,http://www.beshorekollerford.com,4370 N George Street Ext,Manchester,PA,17345,(717) 266-3651
Clarion Ford,http://www.clarionford.com,1214 East Main Street,Clarion,PA,16214,(814) 226-7440
Joe Taylor Ford  Inc.,http://www.joetaylorford.net,Route 257,Seneca,PA,16346,(814) 676-9295
A. Crivelli Ford  Inc.,http://www.acrivelliford.com,797 Allegheny Blvd.,Franklin,PA,16323,(814) 437-3044
Dotts Motor Company  Inc.,http://www.dottsmotor.com,316 Market Street,Clearfield,PA,16830,(814) 765-9681
Murray's Ford Lincoln,http://www.murraysford.net,3007 Blinker Parkway,Du Bois,PA,15801,(800) 371-6601
Stoltz Ford of St. Marys,http://www.stoltzford.com,988 S. St. Marys Rd,Saint Marys,PA,15857,(800) 714-2989
Keller Bros. Ford,http://www.kbford.com,730 S Broad St,Lititz,PA,17543,(717) 626-2000
Chapman Ford Sales of Lancaster,http://www.chapmanfordlancaster.net,5201 Main Street,East Petersburg,PA,17520,(717) 299-4331
Chapman Ford  LLC,http://www.chapmanfordllc.com,3951 Columbia Avenue,Columbia,PA,17512,(717) 285-7111
Whitmoyer Ford  Inc.,http://www.whitmoyerford.com,1001 East Main St,Mount Joy,PA,17552,(888) 408-1318
Beasley Ford Lincoln,http://www.beasleyford.com,1801 Whiteford Rd.,York,PA,17402,(717) 755-2911
Hondru Ford of Manheim,http://www.hondruauto.net,300 South Main St  Box 68,Manheim,PA,17545,(717) 665-3551
Maguire's Ford Lincoln,http://www.maguiresfordpalmyra.com,100 North Thistledown Drive,Palmyra,PA,17078,(717) 838-8300
Keller Bros. Motor Co,http://www.kbford.net,1030 Schaeffer Road,Lebanon,PA,17042,(717) 949-2000
Weber-Harris Ford  Inc.,http://www.weberharris.net,433 Baldwin St,Meadville,PA,16335,(814) 336-3166
Wentworth Auto Sales,http://www.wentworthautosales.com,29253 State Highway 27,Guys Mills,PA,16327,(814) 789-2305
Champion Ford Sales  Inc.,http://www.1championford.com,2502 West 26th Street,Erie,PA,16506,(814) 878-2500
Gibbons Ford,http://www.gibbonsford.com,704 Martin F. Gibbons Blvd.,Dickson City,PA,18519,(570) 489-4747
Gateway Ford Inc,http://www.gatewayfordinc.com,156 E Tioga Street,Tunkhannock,PA,18657,(570) 836-3135
Ray Price Ford,http://www.raypriceford.com,2969 Route 940,Mount Pocono,PA,18344,(570) 839-1111
Fitzpatrick & Lambert Inc,http://www.fitzandlambert.com,11974 Route 87,Dushore,PA,18614,(570) 928-8184
Fairfield Ford of Williamsport,http://www.fairfieldfordofwilliamsport.com,3600 West Fourth St.,Williamsport,PA,17701,570-567-5020
