Dealer Name,website,street,city,state,zip,phone
Sharp Motor Company Inc.,http://www.sharpmotor.com,1516 W. College Street,Pulaski,TN,38478,(931) 363-2533
Moss Motor Co Inc,http://www.mossmotorco.net,1000 Cedar Avenue,South Pittsburg,TN,37380,(877) 837-7114
King Cotton Ford,http://www.kingcottonford.com,965 Highway 51 North,Covington,TN,38019,(901) 476-7111
MHC Ford-Memphis,http://www.southlandtruckcenter.com,3331 One Place,Memphis,TN,38116,(901) 333-7220
AutoNation Ford Memphis,http://www.autonationford-memphis.com,2515 Mt Moriah Rd,Memphis,TN,38115,(901) 362-6364
AutoNation Ford Lincoln Wolfchase,http://www.autonationfordlincoln-wolfchase.com,7925 Highway 64,Memphis,TN,38133,(901) 382-5555
Homer Skelton Ford of Millington  LLC,http://www.hsfordofmillington.com,9030 Highway 51 North,Millington,TN,38053,(901) 873-3673
Landers Ford,http://www.landersfordofcollierville.com,2082 West Poplar Avenue,Collierville,TN,38017,(901) 854-3600
Larry Hill Ford,http://www.larryhillfordclevelandtn.com,2496 South Lee Highway,Cleveland,TN,37311,855-534-1919
Lee - Smith Inc,http://www.leesmithford.com,2600 Eighth Avenue,Chattanooga,TN,37407,(423) 622-4161
Mtn. View Ford Lincoln,http://www.mtnviewford.com,301 E. 20th St.,Chattanooga,TN,37408,(423) 756-1331
Marshal Mize Ford  Inc.,http://www.marshalmizeford.net,5348 Hwy 153,Chattanooga,TN,37343,(423) 875-2023
Tracy Langston Ford  LLC,http://www.tracylangstonfordllc.com,3264 Tom Austin Hwy.,Springfield,TN,37172,(615) 382-7950
Miracle Ford Inc,http://www.miraclefordtn.com,1394 Nashville Pike,Gallatin,TN,37066,(615) 452-5267
Jenkins & Wynne Ford Lincoln,http://www.jenkinsandwynnefordclarksville.com,2655 Trenton Rd.,Clarksville,TN,37040,(931) 538-7000
Weakley County Motors  Inc.,http://www.weakleycomotors.com,841 N Lindell,Martin,TN,38237,(731) 587-3141
Jarnagin Motor Co,http://www.jarnaginford.com,7405 Rutledge Pike,Rutledge,TN,37861,(865) 828-5215
Joe Mahan Ford Inc,http://www.joemahanfordparis.com,211 Memorial Drive,Paris,TN,38242,(731) 642-4711
Short-Redmond Ford of LaFollette  LLC,http://www.short-redmondford.net,1916 Jacksboro Pike,La Follette,TN,37766,(423) 562-2251
Jones Ford,http://www.jones-ford.com,510 Florence Road,Savannah,TN,38372,(731) 925-4018
Erwin Motors Inc,http://www.erwinmotors.com,901 North Main,Erwin,TN,37650,(423) 743-7148
Grindstaff Ford,http://www.grindstafffordinc.com,2214 West Elk Avenue,Elizabethton,TN,37643,(423) 542-4136
Gateway Ford Lincoln,http://www.gatewayfordgreeneville.com,1055 W. Andrew Johnson Hwy.,Greeneville,TN,37745,(800) 637-2702
Ted Russell Ford Lincoln,http://www.tedrussellford.net,8551 Kingston Pike,Knoxville,TN,37919,865-693-7611
Lance Cunningham Ford,http://www.lcunninghamford.com,4101 Clinton Highway,Knoxville,TN,37912,(866) 591-3943
Lenoir City Ford  Inc.,http://www.lenoircityford.com,775 Highway 321 North,Lenoir City,TN,37771,(800) 515-4209
Mcnelly-Whaley Motor Co  Inc,http://www.mcnellywhaleyfordlincoln.com,750 Dolly Parton Pkwy,Sevierville,TN,37862,865-453-2833
Ray Varner Ford  LLC,http://www.rayvarnerford.net,2026 N. Charles G. Seivers Blvd.,Clinton,TN,37716,(865) 457-0704
Bolivar Motor Company  Inc.,http://www.bolivarford.net,10140 Highway 64,Bolivar,TN,38008,(800) 706-1342
Lonnie Cobb Ford,http://www.lonniecobbford.net,1618 Highway 45 North,Henderson,TN,38340,(731) 989-2121
Golden Circle Ford Lincoln  Inc.,http://www.goldencircleford.net,1432 US Highway 45 Bypass,Jackson,TN,38305,(731) 554-3673
Ford Lincoln of Franklin,http://www.fordlincolnoffranklin.net,1129 Murfreesboro Rd.,Franklin,TN,37064,(615) 645-0729
Mid - Tenn Ford Truck Sales Inc.,http://www.midtennfordtrucks.com,1319 Foster Avenue,Nashville,TN,37210,(800) 476-5184
Two Rivers Ford,http://www.2riversford.com,76 Belinda Parkway,Mount Juliet,TN,37122,(800) 900-1000
Town & Country,http://www.townandcountryfordsales.com,101 Anderson Lane,Madison,TN,37115,(615) 865-1280
Ford of Murfreesboro,http://www.fordofmurfreesboro.net,1550 N.W. Broad St.,Murfreesboro,TN,37129,(888) 505-4898
Bates Ford,http://www.burchettfordsales.com,1673 West Main Street,Lebanon,TN,37087,(615) 444-8224
Friendship Ford,http://www.friendshipford.net,1855 Volunteer Parkway,Bristol,TN,37620,(423) 652-6200
Fairway Ford,http://www.fairwaysales.com,2761 East Stone Drive,Kingsport,TN,37660,(423) 578-3600
Johnson City Ford,http://www.jc-ford.net,207 Princeton Road,Johnson City,TN,37601,(423) 282-3000
Florence & White Ford,http://www.florenceandwhiteford.com,710 West Broad Street,Smithville,TN,37166,(615) 597-2300
Ford Lincoln of Cookeville,http://www.fordlincolnofcookeville.net,1600 Interstate Drive,Cookeville,TN,38501,(931) 526-3325
Beaman Ford  Inc.,http://www.gobeamanford.com,1717 Highway 46 South,Dickson,TN,37055,(615) 446-2308
Sloan Ford Lincoln  Inc.,http://www.sloanfd.com,115 S. James Campbell Blvd.,Columbia,TN,38401,(931) 388-2463
Charlie Rogers Ford Inc,http://www.charlierogersfordinc.com,4501 Rhea County Highway,Dayton,TN,37321,(423) 775-1811
Ole Ben Franklin Ford,http://www.olebenfranklinfordofwartburg.com,1226 Knoxville Highway,Wartburg,TN,37887,423-346-6227
Jerry Duncan Ford  Lincoln  Inc.,http://www.jerryduncanfordinc.com,801 Roane Street,Harriman,TN,37748,(865) 882-2434
Lyons Ford,http://www.lyonsfordlewisburg.com,1304 North Ellington Parkway,Lewisburg,TN,37091,(931) 359-3533
Valley Ford  Inc.,http://www.valleyfordinc.com,111 Auto Lane,Sparta,TN,38583,(931) 738-2311
East Tennessee Ford,http://www.easttennesseeford.net,2712 North Main Street,Crossville,TN,38555,(931) 484-5135
Rusty Wallace Ford,http://www.rustywallacefordnewport.com,134 Sharon Drive,Dandridge,TN,37725,(423) 623-6138
Morristown Ford Inc.,http://www.morristownford.net,1112 West Morris Blvd.,Morristown,TN,37813,(423) 586-5520
Tim Castellaw Ford,http://www.timcastellawford.net,920 Highway 51 Bypass,Dyersburg,TN,38024,(800) 438-8089
Union City Ford Lincoln  Inc,http://www.taylorfordlincoln.net,Hwy 51 South,Union City,TN,38261,(731) 885-8833
Russell Barnett Ford of Tullahoma,http://www.barnettfordtullahoma.net,1106 East Carroll St.,Tullahoma,TN,37388,(931) 455-4564
Newton Ford South,http://www.newtonfordllc.com,2010 North Main St,Shelbyville,TN,37160,(931) 685-8000
Russell Barnett Ford  Inc.,http://www.russellbarnettford.net,4055 Tullahoma Highway,Winchester,TN,37398,(931) 967-2277
Jacky Jones Ford Lincoln  Inc.,http://www.jackyjonessweetwater.com,714 New Highway 68,Sweetwater,TN,37874,(423) 337-5066
Gene Langley Ford Inc,http://www.genelangleyford.com,3500 East End Drive,Humboldt,TN,38343,(731) 784-9311
Steve Marsh Ford,http://www.stevemarshfordsales.com,12415 South First Street,Milan,TN,38358,(731) 686-7461
Tennessee Valley Ford  Inc,http://www.tennesseevalleyford.com,50 East Main Street,Parsons,TN,38363,(731) 847-3333
Al White Motors  Inc.,http://www.alwhitemotors.net,2002 Hillsboro Blvd.,Manchester,TN,37355,(931) 728-2402
Kidd Ford,http://www.kiddford.com,5917 Manchester Highway,Morrison,TN,37357,(931) 668-2177
