Dealer Name,website,street,city,state,zip,phone
Center Motor Company,http://www.centermotorcompany.com,816 Hurst Street,Center,TX,75935,(800) 256-4750
Excel Ford Lincoln  LP,http://www.excelford.net,2228 S. E. Loop 59,Carthage,TX,75633,(903) 693-3821
Sabine River Ford,http://www.sabineriverfordoforange.com,1601 Green Avenue,Orange,TX,77630,(409) 883-3581
XIT Ford,http://www.xitfordtrucks.com,Highway 54 East,Dalhart,TX,79022,(806) 244-8511
Blake Utter Ford,http://www.blakeutterford.net,215 Hwy 75 North,Denison,TX,75020,(800) 481-9321
Bob Utter Ford Lincoln,http://www.bobutterford.net,2525 Texoma Parkway,Sherman,TX,75090,(800) 259-3560
Gruver Ford,http://www.gruverford.com,531 Main Street,Gruver,TX,79040,(806) 733-2431
Paris Ford Lincoln  Inc.,http://www.parisfordlincoln.com,2020 N.E. Loop 286,Paris,TX,75460,(903) 784-2566
Arrow Ford Inc,http://www.arrowford.net,4001 South First Street,Abilene,TX,79605,(866) 478-4890
Lawrence Hall Ford  Inc.,http://www.westtexasford.net,2016 Commercial Avenue,Anson,TX,79501,(800) 315-7436
Bowden Ford Co.,http://www.bowdenford.com,1300 E Main Street,Alice,TX,78332,(361) 664-9541
Sames Kingsville Ford,http://www.samesfordkingsville.com,2501 South US Highway 77,Kingsville,TX,78363,(361) 592-2661
Access Ford Lincoln of Corpus Christi,http://www.accessford.com,3680 IH69 Access Rd.,Corpus Christi,TX,78410,(361) 265-3673
Ron - Carter Ford Inc,http://www.roncarterford.net,3005 Fm 528,Alvin,TX,77511,(281) 331-8111
Big Star Ford,http://www.bigstarfordmanvel.com,17717 S. Freeway,Manvel,TX,77578,(713) 960-9800
McRee Ford  Inc.,http://www.mcreeford.net,2800 Gulf Freeway,Dickinson,TX,77539,(281) 337-1529
AutoNation Ford Gulf Freeway,http://www.autonationford-gulffreeway.com,12227 Gulf Freeway,Houston,TX,77034,(713) 371-4000
Mac Haik Ford,http://www.machaikfordpasadena.net,4242 East Sam Houston Parkway South,Pasadena,TX,77505,(281) 604-3673
Cook Ford,http://www.cookfordtx.com,2600 Palmer Hwy.,Texas City,TX,77590,(409) 948-2541
Gulf Coast Ford,http://www.gulfcoastfords.com,3000 North 288 Freeway,Angleton,TX,77515,(713) 422-7200
Russell & Smith Ford Inc.,http://www.buyrussellsmithford.com,3440 S Loop West,Houston,TX,77025,(888) 463-8919
Classic Ford,http://www.classicfordofgalveston.net,7700 Broadway,Galveston,TX,77554,(409) 744-0481
Helfman Ford Inc.,http://www.helfmanford.net,12220 Southwest Freeway,Stafford,TX,77477,(888) 266-5042
Sterling McCall Ford,http://www.sterlingmccallfordhouston.com,6445 Southwest Freeway,Houston,TX,77074,(281) 588-5000
Chastang Ford,http://www.chastangfordhouston.com,6200 N. Loop East,Houston,TX,77026,(713) 678-5000
Tommie Vaughn Ford,http://www.tommievaughnmotors.com,1201 North Shepherd Drive,Houston,TX,77008,(713) 869-4661
Yaklin Ford,http://www.yaklinford.com,1200 North Highway 288-B,Richwood,TX,77531,(979) 265-4224
Tri State Ford,http://www.amarillotristateford.com,1900 I-40 East,Amarillo,TX,79103,(806) 376-4911
Gene Messer Ford of Amarillo,http://www.genemesserfordamarillo.com,3400 Soncy Street,Amarillo,TX,79119,(806) 355-7471
All Star Family Ford,http://www.allstarford.us,13301 Interstate 27,Amarillo,TX,79119,(806) 622-3400
Stanley Ford - Andrews,http://www.stanleyfordandrews.com,1700 N Hwy 385,Andrews,TX,79714,(432) 524-3673
Commercial Motor Company,http://www.commercialmotorco.com,160 S. Commercial,Aransas Pass,TX,78336,(361) 758-5361
AutoNation Ford Corpus Christi,http://www.autonationford-corpuschristi.com,6250 South Padre Island Drive,Corpus Christi,TX,78412,(361) 994-6200
Sames Ford,http://www.samesford.net,4721 Ayers,Corpus Christi,TX,78415,(361) 851-7600
Don Davis Ford Lincoln,http://www.dondavisford.net,633 N. Highway 360,Arlington,TX,76011,(817) 588-5200
AutoNation Ford Arlington,http://www.autonationford-arlington.com,1400 W I-20,Arlington,TX,76017,(817) 467-3673
Grand Prairie Ford Inc.,http://www.grandprairieford.net,701 E. Palace Parkway,Grand Prairie,TX,75050,(866) 733-7379
Five Star Ford,http://www.fivestarfordnrh.com,6618 Ne Loop 820 At Rufe Snow,North Richland Hills,TX,76180,(817) 498-8838
Westway Ford,http://www.westwayford.net,801 W. Airport Fwy.,Irving,TX,75062,(866) 342-6043
AutoNation Ford South Fort Worth,http://www.autonationford-southfortworth.com,2401 E. I-20,Ft Worth,TX,76119,(817) 535-3673
Grapevine Ford Lincoln,http://www.grapevineford.net,801 E. State Hwy 114,Grapevine,TX,76051,(877) 418-2969
Rush Medium Duty Truck Center  Dallas,http://www.rushmediumdutyford.com,4000 Irving Blvd.,Dallas,TX,75247,(214) 631-2050
AutoNation Ford Burleson,http://www.autonationford-burleson.com,850 North Burleson Blvd.,Burleson,TX,76028,(817) 426-7300
Park Cities Ford Lincoln,http://www.parkcitiesford.net,3333 Inwood Road,Dallas,TX,75235,(888) 722-5075
AutoNation Ford-Mazda Fort Worth,http://www.autonationford-ftworth.com,5000 Bryant Irvin Rd,Ft Worth,TX,76132,(817) 370-5000
Sam Pack's Five Star Ford,http://www.5starfordonline.com,1635 I-H35,Carrollton,TX,75006,(972) 446-5027
Mac Haik Ford,http://www.machaikdesototx.com,515 N I-35E,De Soto,TX,75115,(972) 223-8050
David McDavid Ford Ft. Worth,http://www.davidmcdavidfordsales.com,300 West Loop 820 South,Fort Worth,TX,76108,(817) 935-7000
Sam Pack's Five Star Ford of Lewisville,http://www.fivestarfordlewisville.net,1144 N. Stemmons Freeway,Lewisville,TX,75067,972-338-9353
Waxahachie Ford,http://www.waxahachieford.com,2401 N. 1-35 E,Waxahachie,TX,75167,(972) 938-0444
Cleburne Ford,http://www.fordofcleburne.com,3800 North Main,Cleburne,TX,76033,(817) 558-9998
Randall Reed's Prestige Ford,http://www.randallreedsprestigeford.com,3601 S. Shiloh Road,Garland,TX,75041,(866) 858-1936
Five Star Ford of Plano,http://www.fivestarfordofplano.net,4400 W. Plano Parkway,Plano,TX,75093,(972) 985-3600
North Central Ford,http://www.northcentralford.net,1819 North Central Expressway,Richardson,TX,75080,(800) 574-9708
Town East Ford,http://www.teford.net,18411 Lyndon B. Johnson Freeway,Mesquite,TX,75150,(866) 374-5761
AutoNation Ford Frisco,http://www.autonationford-frisco.com,6850 Highway 121,Frisco,TX,75034,(972) 335-5000
Bill Utter Ford Inc.,http://www.utterford.net,4901 South I-35 E.,Denton,TX,76205,(800) 611-5909
Brinson Ford Lincoln of Athens,http://www.brinsonofathens.com,2970 State Highway 31 East,Athens,TX,75752,(903) 676-5200
Tri - County Ford,http://www.cedarcreekford.com,108 W. Mason Street,Mabank,TX,75147,(903) 887-2121
Lade Ford,http://www.ladeford.com,Corner Of Highway 155 And Highway 175,Frankston,TX,75763,(903) 876-2225
All Star Ford - Canton,http://www.allstarfordofcanton.com,17849 Interstate 20,Canton,TX,75103,(903) 567-4144
McLarty Ford,http://www.mclartyfordsales.com,3232 Summerhill Road,Texarkana,TX,75503,(903) 792-7121
Dewey Moore Ford,http://www.deweymooreford.net,143 Hwy. 49 S.,Hughes Springs,TX,75656,(903) 639-2516
Johnston Ford,http://www.johnstonford.com,615 James Bowie Drive,New Boston,TX,75570,(903) 628-2513
Leif Johnson Ford Inc,http://www.leifjohnsonfordinc.com,501 East Koenig Lane,Austin,TX,78751,(512) 454-3711
Covert Ford Inc.,http://www.covertfordaustin.com,11514 Research Blvd.,Austin,TX,78759,(512) 345-4343
Maxwell Ford,http://www.maxwellfordaustin.com,5000 South I.H. 35,Austin,TX,78745,(512) 916-2696
Riata Ford,http://www.riataford.net,10501 US HWY 290 E,Manor,TX,78653,(512) 281-3673
Mac Haik Ford Lincoln,http://www.machaikfordlincoln.com,7201 IH-35 North,Georgetown,TX,78626,(800) 720-3079
Truck City Ford,http://www.truckcityford.net,15301 South IH-35  Exit 220,Buda,TX,78610,(800) 313-0055
Covert Ford of Hutto,http://www.covertfordhutto.com,1200 A. Highway 79  East,Hutto,TX,78634,(512) 759-1414
Sames Bastrop Ford  Inc.,http://www.samesbastropfordonline.com,1115 Highway 71 West,Bastrop,TX,78602,(512) 303-3000
Lockhart Mtr Co Inc,http://www.lockhartmotorcompany.com,2330 South Colorado Street,Lockhart,TX,78644,(512) 376-3660
La Grange Ford Lincoln  LP,http://www.lagrange-ford.com,1605 West Travis Street,La Grange,TX,78945,(800) 375-6461
Von - Wil Ford Inc.,http://www.von-wilford.com,316 N. Richmond Road,Wharton,TX,77488,(979) 532-4360
VonDerAu Ford,http://www.vonderauford.net,1912 N Mechanic,El Campo,TX,77437,(800) 441-5554
Baytown Ford,http://www.baytownfordauto.com,4110 I-10 East,Baytown,TX,77521,(281) 839-3300
Friendly Ford of Crosby,http://www.friendlyfordofcrosby.com,2425 Highway 90,Crosby,TX,77532,(800) 568-9561
B J Ford  Inc.,http://www.bjfordofliberty.com,3560 Hwy 90,Liberty,TX,77575,(866) 642-0487
Randall Reed's Planet Ford,http://www.randallreedonline.com,19000 Eastex Freeway,Humble,TX,77338,(800) 850-8751
Lone Star Ford Inc,http://www.lonestarfordonline.net,8477 North Freeway,Houston,TX,77037,(800) 705-0224
Kinsel Ford,http://www.kinselford.net,3355 Eastex Freeway,Beaumont,TX,77706,(409) 899-4000
Philpott Ford Sales,http://www.philpottford1.com,1400 US Highway 69,Nederland,TX,77627,(409) 727-1451
Energy Country Ford,http://www.energycountryford.com,4545 Twin City Hwy,Port Arthur,TX,77642,(409) 293-4717
Silsbee Ford  Inc.,http://www.silsbeeford.com,1211 U.S. Hwy 96N.,Silsbee,TX,77656,(800) 464-2749
Sour Lake Ford,http://www.sourlakeford.net,190 Highway 105 East,Sour Lake,TX,77659,(409) 287-3583
Blake Fulenwider Ford,http://www.blakefulenwiderford.com,115 West Houston Street,Beeville,TX,78102,(361) 358-8877
Alexander Ford,http://www.alexanderauto.com,U.S. 181 Business South,Kenedy,TX,78119,(830) 583-2514
Kinsel Ford Three Rivers,http://www.kinselfordthreerivers.com,905 Hwy 281 N.,Three Rivers,TX,78071,(361) 786-2547
Aztec Ford  Inc.,http://www.aztecfordgoliad.com,447 East Pearl,Goliad,TX,77963,(361) 645-3296
Johnson Brothers Ford,http://www.jbf2.com,7455  South General Bruce Dr.,Temple,TX,76502,(254) 773-5257
Automax Ford,http://www.automaxford.net,3301 East Central Texas Expressway,Killeen,TX,76543,(254) 526-0511
Stanley Ford-McGregor,http://www.stanleyfordmcgregor.com,1280 E. McGregor Drive,Mcgregor,TX,76657,(877) 774-5373
Big Spring Ford,http://www.bigspringfordsales.com,500 W. 4th Street,Big Spring,TX,79720,(432) 267-7424
Bf White Motor Co,http://www.whitemotor.com,201 East Saint Anna,Stanton,TX,79782,(800) 953-3321
Jennings Anderson Ford,http://www.jandersonford.com,31480 IH 10 west,Boerne,TX,78006,(800) 886-5936
Red McCombs Ford,http://www.redmccombsfordsa.com,8333 IH-10 West,San Antonio,TX,78230,(800) 481-9046
Northside Ford,http://www.northside-ford.com,12300 San Pedro,San Antonio,TX,78216,(855) 310-6432
McCombs Ford West,http://www.mccombsfordwestsa.com,7111 Nw Loop 410,San Antonio,TX,78238,(800) 315-4315
Jordan Ford Ltd.,http://www.jordanford.net,13010 Ih 35 North,San Antonio,TX,78233,(210) 477-8036
Ken Stoepel Ford Inc.,http://www.stoepelford.com,400 Sidney Baker South,Kerrville,TX,78028,(830) 257-5553
Meador Commerce Ford,http://www.meadorcommerceford.com,105 Highway 224,Commerce,TX,75428,(903) 886-4014
Patterson Ford of Bowie,http://www.pattersonfordofbowie.net,6486 US Hwy 287 North Access Rd.,Bowie,TX,76230,(940) 872-1133
Klement Ford of Muenster,http://www.klemfordmuenster.com,Highway 82,Muenster,TX,76252,(940) 759-2244
Karl Klement Ford,http://www.karlklementforddecatur.com,2670 Highway 287 South,Decatur,TX,76234,(940) 627-1101
Four Stars Ford,http://www.fourstarsford.com,205 West Belknap,Jacksboro,TX,76458,(940) 567-5562
Heart of Texas Ford  Inc.,http://www.heartoftexasford.com,110 S. Bridge Street,Brady,TX,76825,(325) 597-2124
Appel Ford  Inc.,http://www.appelfordbrenham.com,1820 HWY 290 West,Brenham,TX,77833,(979) 836-3659
Team Ford of Navasota,http://www.myteamford.net,9965 Highway 6,Navasota,TX,77868,(936) 825-2555
Stanley Ford Lincoln - Brownfield,http://www.stanleyfordbrownfield.com,1708 Lubbock Rd.,Brownfield,TX,79316,(806) 637-3561
Smith South Plains Ford Lincoln,http://www.smithsouthplainsford.com,Highway 114 East,Levelland,TX,79336,(806) 894-3191
Tipton Motors  Inc.,http://www.tiptonmotorsinc.com,3840 N Expressway,Brownsville,TX,78526,(956) 350-5600
Boswell Elliff Ford,http://www.ltboswell.com,1401 West Business Highway 77,San Benito,TX,78586,(956) 399-2468
Boggus Motor Company II  LLC,http://www.boggusharlingen.com,2521 South Expressway 83,Harlingen,TX,78550,(956) 423-2580
Big Country Ford Lincoln,http://www.bigcountryford.net,500 W. Commerce,Brownwood,TX,76801,(325) 643-1651
Bayer Ford  Inc.,http://www.bayerford.net,200 East Central,Comanche,TX,76442,(877) 356-2707
Bledsoe Ford,http://www.bledsoeford.com,Hwy 84 N.,Coleman,TX,76834,(325) 625-4101
Griffith Ford San Marcos,http://www.griffithfordsanmarcos.net,2661 IH 35 North,San Marcos,TX,78666,(512) 353-3673
Pruitt Ford,http://www.pruittford.net,912 Sheppard Road,Burkburnett,TX,76354,(940) 569-5226
Wichita Falls Ford Lincoln,http://www.wichitafallsford.net,5401 Kell Blvd. West,Wichita Falls,TX,76310,(940) 692-1121
Mike Brown Ford,http://www.mikebrownford.net,4950 East Highway 377,Granbury,TX,76049,(866) 562-7500
SouthWest Ford,http://www.southwestfordofweatherford.com,3000 Fort Worth Hwy.,Weatherford,TX,76087,(800) 547-3597
Lloyd Ford,http://www.lloydford.net,1201 E. Main St.,Itasca,TX,76055,(254) 687-2741
Bud Cross Ford Inc,http://www.budcrossfordtx.com,150 State Highway 36 South,Caldwell,TX,77836,(979) 567-4621
Rockdale Country Ford,http://www.caldwellcountryfordofrockdale.com,479 West Hwy 79,Rockdale,TX,76567,(512) 446-7377
College Station Ford Lincoln,http://www.collegestationfordsales.com,1351 Earl Rudder Freeway South,College Station,TX,77845,(979) 779-0664
Wills Point Ford  Inc.,http://www.willspointford.com,238 ES Commerce,Wills Point,TX,75169,(903) 873-2511
Longhorn Ford,http://www.longhornford.net,1311 South Pacific,Mineola,TX,75773,(903) 569-9421
Paul Murrey Ford  Inc.,http://www.paulmurreyford.com,1105 E. Mulberry,Kaufman,TX,75142,(972) 962-2151
Randall Noe Ford,http://www.randallnoe.net,1608 West Moore,Terrell,TX,75160,(800) 293-9802
Brian Toliver Ford of Quitman,http://www.briantoliverfordofquitman.com,539 East Goode,Quitman,TX,75783,(903) 763-2232
Bob Tomes Ford,http://www.bobtomesford.net,950 South Central Expressway,Mckinney,TX,75070,(214) 544-5000
Rockwall Ford,http://www.rockwallford.net,990 East I-30 at Highway 205,Rockwall,TX,75087,(877) 838-3306
Stanley Ford - Pilot Point,http://www.stanleyfordpilotpoint.com,11590 Highway 377,Pilot Point,TX,76258,(940) 686-2236
Marshall Ford Lincoln,http://www.marshallfordtexas.com,4200 East End Blvd S,Marshall,TX,75672,(800) 419-5762
Fairway Ford Henderson,http://www.fairwayfordhenderson.net,301 S Highway 79,Henderson,TX,75654,(903) 657-2566
San Augustine Motor Co,http://www.sanaugustinemotors.com,202 East Columbia,San Augustine,TX,75972,(936) 275-2371
Cole Ford Sales Inc,http://www.colefordsales.net,404 Southwest IH 35,Hillsboro,TX,76645,(254) 582-5361
Anderson Ford,http://www.andersonford.info,13872 U.S. Hwy 59 South,Cleveland,TX,77327,(800) 203-7574
Gullo Ford of Conroe,http://www.gullocars.com,925 I-45 South,Conroe,TX,77301,(281) 367-0000
Gabriel/Jordan Ford,http://www.gabrieljordanford.net,2400 U.S. Hwy 59 South,Livingston,TX,77351,(936) 327-4327
Planet Ford,http://www.planetfordsales.com,20403 I-45 North,Spring,TX,77388,(281) 719-3700
Gloff Ford,http://www.glofford.com,Highway 6 North,Clifton,TX,76634,(254) 675-8369
Sykora Family Ford,http://www.sykorafamilyford.biz,519 South Geo. Kacir Drive,West,TX,76691,(254) 826-5314
Tommie Vaughn Auto Country,http://www.tommievaughnfordcolumbus.com,4860 Interstate 10 East,Columbus,TX,78934,(979) 732-2353
Chuck Brown Ford,http://www.chuckbrownford.com,315 E. I-10 Frontage Road,Schulenburg,TX,78956,(979) 743-4111
Ryan Ford,http://www.ryanford.com,3796 NE I-10 Frontage Rd.,Sealy,TX,77474,866 401 7926
Don Elliott Ford,http://www.donelliottford.net,407 N. Main Street  Hwy 90a,East Bernard,TX,77435,(979) 335-4337
Hill Country Ford,http://www.hc-ford.com,1200 Highway 84,Goldthwaite,TX,76844,(325) 648-2296
Texstar Ford Lincoln  Inc.,http://www.texstarford.com,2975 West Washington,Stephenville,TX,76401,(254) 968-7000
Southwest Ford,http://www.southwestfordgreenville.com,4001 Interstate 30,Greenville,TX,75402,(903) 455-7222
Brian Toliver Ford Lincoln,http://www.briantoliverford.net,1040 Gilmer Street,Sulphur Springs,TX,75482,(903) 885-0502
Tomball Ford Inc.,http://www.tomballfords.com,22702 Tomball Parkway,Tomball,TX,77375,(800) 324-3673
Bill Fick Ford,http://www.billfickfordhuntsville.com,737 I-45 South,Huntsville,TX,77340,(800) 559-4295
Hoffpauir  Inc.,http://www.hoffpauirinc.com,902 North Key Ave,Lampasas,TX,76550,(800) 460-4171
Brinson Ford Lincoln of Corsicana,http://www.brinsonford.net,1951 E Highway 31,Corsicana,TX,75110,(903) 874-8880
Ennis Ford  Inc.,http://www.ennisford.net,900 North I-45,Ennis,TX,75119,(877) 890-8768
Dick Scott Ford Inc,http://www.dickscottfordinc.com,401 North Sherman,Mexia,TX,76667,(800) 725-5582
All Star Ford-Palestine,http://www.allstar-ford.com,2929 S Loop 256,Palestine,TX,75801,(903) 729-2171
Weber Motor Company,http://www.webermotorcompany.com,1402 East Broadway,Cuero,TX,77954,(361) 275-2311
Wendel Motor,http://www.wendelmotor.com,204 Irvin Street,Yoakum,TX,77995,(361) 293-3561
Mac Haik Ford Lincoln,http://www.machaikfordofvictoria.com,4506 N. Navarro,Victoria,TX,77904,888-253-4662
Cecil Atkission Ford Lincoln,http://www.cecilforddelrio.com,2700 Highway 90 West,Del Rio,TX,78840,(830) 775-7481
Holiday Ford,http://www.holidayfordwhitesboro.com,1003 Highway 82 West,Whitesboro,TX,76273,(903) 564-3594
Chaparral Ford Inc.,http://www.chapfordsales.com,I.H. 35 S. Exit 124 Bigfoot Rd.,Devine,TX,78016,(830) 665-4461
Cecil Atkission Ford,http://www.cecilhondo.com,109 19th Street (highway 90),Hondo,TX,78861,(888) 419-9275
Mac Haik's Southway Ford,http://www.machaiksfordsouthway.com,7979 IH-35 South,San Antonio,TX,78224,(888) 942-8873
Kinsel Ford Pleasanton,http://www.kinselfordpleasanton.com,121 South Main Street,Pleasanton,TX,78064,(830) 569-3825
Fenton Ford,http://www.fentonforddumas.com,1710 South Dumas Ave.,Dumas,TX,79029,(866) 388-5908
Ancira Eagle Pass Ford,http://www.ancirafordeaglepass.com,4039 Adams Circle,Eagle Pass,TX,78852,(800) 944-2000
Legacy Ford,http://www.legacyfordtx.com,27225 Southwest Freeway,Rosenberg,TX,77471,(800) 373-4156
AutoNation Ford Katy,http://www.autonationford-katy.com,20777 Katy Frwy,Katy,TX,77450,(281) 305-8949
Stanley Ford - Eastland,http://www.stanleyfordeastland.com,1308 E Main St,Eastland,TX,76448,(254) 629-1786
Stowe Ford Inc,http://www.stoweford.com,104 West Crockett,Gordon,TX,76453,(254) 693-5323
Hacienda Ford,http://www.buyhaciendaford.com,3010 West University Drive,Edinburg,TX,78539,(956) 383-1615
Boggus Ford - McAllen,http://www.boggusfordonline.com,1400 E Hwy 83,Mcallen,TX,78501,(956) 686-7411
Spikes Ford,http://www.spikesford.net,805 E. Expressway 83,Mission,TX,78572,(888) 400-3571
Payne Weslaco Ford  LLP,http://www.weslacofordllp.com,2401 E Expressway 83,Weslaco,TX,78599,(956) 968-3151
Cardenas Ford,http://www.cardenasford.com,NW Corner Hwy 77 & Spur 56,Raymondville,TX,78580,(956) 689-2452
Texana Ford,http://www.texanaford.com,1406 W. Main Street,Edna,TX,77957,(361) 782-5233
Port Lavaca Ford,http://www.ptlavacafordonline.com,1801 Highway 35 South,Port Lavaca,TX,77979,(361) 552-1155
Casa Ford Lincoln,http://www.mycasaford.com,5815 Montana,El Paso,TX,79925,(915) 779-2272
Southwest Truck Sales,http://www.southwesttruckelpaso.com,10901 Gateway West,El Paso,TX,79935,(915) 593-2641
Viva Ford,http://www.viva-ford.com,5550 North Desert Blvd.,El Paso,TX,79912,(915) 834-2800
Shamaley Ford,http://www.shamaleyford.net,11301 Gateway Blvd,El Paso,TX,79936,(915) 591-8600
All Star Ford - Fairfield,http://www.allstarfairfield.com,1201 Hwy 84 West,Fairfield,TX,75840,(903) 389-4186
Ancira Ford,http://www.anciraford.net,Highway 181 North,Floresville,TX,78114,(830) 216-4040
Caraway Ford,http://www.carawayford.com,100 Highway 87 North,Nixon,TX,78140,(830) 582-2511
Grande Ford Truck Sales  Inc.,http://www.grande-ford.com,4562 IH 10 East,San Antonio,TX,78219,(210) 661-4121
Griffith Ford Seguin,http://www.griffithfordseguin.net,1800 W IH 10,Seguin,TX,78155,(830) 303-3673
Reagor Dykes Ford Lincoln,http://www.reagordykesfordplainview.net,808 N IH 27,Plainview,TX,79072,(806) 293-2511
Stockton Ford Inc,http://www.stocktonford.com,2300 W. Dickinson,Fort Stockton,TX,79735,(432) 336-3351
Bill McRae Ford Lincoln,http://www.billmcraefordjacksonville.com,1511 East Rusk Street,Jacksonville,TX,75766,(903) 586-2241
Tyler Ford,http://www.tylerforddirect.com,2626 S. Southwest Loop 323,Tyler,TX,75701,(800) 788-7876
McLane Ford of Fredericksburg  LLC,http://www.mclaneford.net,1279 South US Highway 87,Fredericksburg,TX,78624,(830) 997-2129
Glenn Polk Ford,http://www.glennpolkford.com,4320 N I-35,Gainesville,TX,76240,(800) 315-4647
Stanley Ford - Gilmer,http://www.stanleyfordgilmer.com,621 N. Wood Street,Gilmer,TX,75644,(903) 843-2521
J. O. Williams Motors  Inc.,http://www.jowilliamsford.com,419 East Broadway,Gladewater,TX,75647,(903) 845-2222
Pegues - Hurst Motor Co,http://www.pegueshurstford.com,200 Spur 63,Longview,TX,75601,(903) 232-2530
All Star Ford - Kilgore,http://www.allstarkilgore.net,1615 Hwy 259 North,Kilgore,TX,75662,(903) 984-2006
Texas Country Ford,http://www.texascountryford.net,321 East Coke Rd.,Winnsboro,TX,75494,(903) 342-3700
Caraway Ford Gonzales,http://www.carawayfordgonzales.com,1405 E. Sarah Dewitt,Gonzales,TX,78629,(830) 672-9646
Jack Powell Ford,http://www.jackpowellfordofmineralwells.com,1418 S E First Street,Mineral Wells,TX,76067,(940) 325-1331
Bailey Auto Plaza,http://www.baileyfordgraham.com,1546 Fourth St.,Graham,TX,76450,(940) 549-1313
Escamilla Ford  Inc.,http://www.escamillaford.com,301 E. Galbraith,Hebbronville,TX,78361,(361) 527-3224
Whiteface Ford,http://www.whitefacefordhereford.com,550 N. 25 Mile Avenue,Hereford,TX,79045,(800) 370-4828
Mac Haik Ford Inc.,http://www.mackhaikford.com,10333 Katy Freeway,Houston,TX,77024,(713) 932-5000
Joe Myers Ford Lincoln,http://www.joemyersauto.net,16634 Northwest Freeway,Houston,TX,77040,(866) 817-1113
Elliott Ford Lincoln,http://www.elliottfl.com,2055 W Burton Rd,Mount Pleasant,TX,75455,(903) 572-3486
Henson Ford  Inc.,http://www.hensonford.com,581 Interstate 45 North,Madisonville,TX,77864,(800) 617-0757
Jasper Ford Lincoln,http://www.jasperford.com,2130 N Wheeler,Jasper,TX,75951,(409) 384-3411
Kermit Motor Co.  Inc.,http://www.kermitmotorco.com,201 S. Poplar,Kermit,TX,79745,(432) 586-2551
Spike Dykes Ford Lincoln,http://www.spikedykesford.net,1207 S. Lynn,Lamesa,TX,79331,(806) 872-2188
Sames Motor Company,http://www.sameslaredo.com,6001 San Dario,Laredo,TX,78041,(956) 721-4700
Gene Messer Ford Lincoln,http://www.genemesserford.net,6000 West 19th,Lubbock,TX,79407,(806) 793-2727
Pollard Friendly Ford Co,http://www.pollardfriendlyford.com,3301 South Loop 289,Lubbock,TX,79423,(806) 797-3441
Johnson Sewell Ford Lincoln,http://www.johnsonsewellford.net,3301 Highway 281 North,Marble Falls,TX,78654,(830) 693-5577
Al Meyer Ford Inc,http://www.almeyerfordinc.com,800 N Medford Dr,Lufkin,TX,75901,(936) 632-6611
Tipton Ford  Inc.,http://www.tiptonford.net,1115 North St,Nacogdoches,TX,75961,(936) 564-7337
Glover Ford  LLC.,http://www.gloverford.com,1204 N. Business Hwy 6.,Marlin,TX,76661,(254) 883-5583
Bird-Kultgen  Inc.,http://www.bkford.com,1701 West Loop 340,Waco,TX,76712,(254) 666-2473
Rogers Ford Sales Inc.,http://www.rogersford.com,4200 West Wall Street,Midland,TX,79703,(432) 694-8801
Sewell Ford-Lincoln,http://www.sewellcarsandtrucks.com,2425 East 8th Street,Odessa,TX,79761,(432) 498-0421
Payne Rio Grande City Ford  LLC,http://www.payneriograndecityford.net,5353 East US Hwy 83,Rio Grande City,TX,78582,(956) 487-2582
Bluebonnet Motors,http://www.bluebonnetford.net,351 IH 35 SOUTH,New Braunfels,TX,78130,(800) 647-5075
Fenton Motors of Pampa  Inc.,http://www.fentonford.com,123 N. Hobart,Pampa,TX,79065,(806) 665-8404
Hergert Ford,http://www.hergert-ford.com,420 South Main,Perryton,TX,79070,(806) 435-7676
Bar-W Ford Tulia  LTD,http://www.barwford.net,901 Sixth Street,Tulia,TX,79088,(806) 995-3537
Ivey Motors,http://www.iveymotors.net,721 Austin,Robert Lee,TX,76945,(325) 453-4561
Jim Bass Ford  Inc.,http://www.jimbassford.com,4032 Houston Harte Expressway,San Angelo,TX,76901,(325) 949-4621
Wilson Motors,http://www.wilsonmotors.net,1101 East Coliseum Dr.,Snyder,TX,79549,(800) 545-5019
Stanley Ford -Sweetwater,http://www.stanleyfordsweetwater.com,603 SW Georgia Ave.,Sweetwater,TX,79556,(325) 236-6355
Griffith Ford Inc.,http://www.griffithford.net,3000 East Main,Uvalde,TX,78801,(830) 278-3673
Vernon Ford,http://www.vernonfordsales.com,2803 Wilbarger St.,Vernon,TX,76384,(940) 552-2555
